Id,Source,Site name,Address,Zip,Phone,Fax,Program Name,Length of Day,IDHS Provider ID,Agency,Neighborhood,Funded Enrollment,Program Option,Number per Site EHS,Number per Site HS,Director,Head Start Fund,Eearly Head Start Fund,CC fund,Progmod,Website,Executive Director,Center Director,ECE Available Programs,NAEYC Valid Until,NAEYC Program Id,Email Address,Ounce of Prevention Description,Purple binder service type,Column,Column2
1385,chapin_dfss_providers_2011_070212.csv,ABRAHAM LINCOLN CENTRE ABRAHAM-LINCOLN,3858 S COTTAGE GROVE ,60653,2851390,,,,,,,ABRAHAM LINCOLN CENTRE,OAKLAND,,,,,Charles Ann Stewart,Yes,No,Yes,2749SA(School Age (SA)),,,,,,,,,
1386,chapin_dfss_providers_2011_070212.csv,ABRAHAM LINCOLN CENTRE LINCOLN ROSELAND,7 E 119TH ST ,60628,2647633,,,,,,,ABRAHAM LINCOLN CENTRE,WEST PULLMAN,,,,,Barbara Woods,Yes,No,No,3175PS(HS Collaboration with Childcare & PreK),,,,,,,,,
1387,chapin_dfss_providers_2011_070212.csv,ABRAHAM LINCOLN CENTRE LINCOLN/KING,4314 S COTTAGE GROVE ,60653,7472310,,,,,,,ABRAHAM LINCOLN CENTRE,GRAND BOULEVARD,,,,,Joyce Wallace,Yes,No,No,7100PS(HS Collaboration with Childcare & PreK),,,,,,,,,
1388,chapin_dfss_providers_2011_070212.csv,ADA S. MCKINLEY COMMUNITY SERVICES ALBANY LOCATION,5954 S ALBANY ,60629,7377810,,,,,,,ADA S. MCKINLEY COMMUNITY SERVICES,CHICAGO LAWN,,,,,Mildred Burnside,Yes,No,No,,,,,,,,,,
1389,chapin_dfss_providers_2011_070212.csv,ADA S. MCKINLEY COMMUNITY SERVICES CHILDREN'S CENTER (HALSTED),12803 S HALSTED ,60628,2645171,,,,,,,ADA S. MCKINLEY COMMUNITY SERVICES,WEST PULLMAN,,,,,Olivia Ramsey,Yes,No,No,,,,,,,,,,
1390,chapin_dfss_providers_2011_070212.csv,ADA S. MCKINLEY COMMUNITY SERVICES CHILDREN'S CENTER (WESTERN),7956 S WESTERN ,60620,4768805,,,,,,,ADA S. MCKINLEY COMMUNITY SERVICES,ASHBURN,,,,,Corlis Wright,Yes,No,No,,,,,,,,,,
1391,chapin_dfss_providers_2011_070212.csv,ADA S. MCKINLEY COMMUNITY SERVICES LITTLE GENIUS,11439 S MICHIGAN AVE ,60628,6298091,,,,,,,ADA S. MCKINLEY COMMUNITY SERVICES,ROSELAND,,,,,Melissa Carter,Yes,No,No,,,,,,,,,,
1392,chapin_dfss_providers_2011_070212.csv,ADA S. MCKINLEY COMMUNITY SERVICES LITTLE HANDS,7146 S ASHLAND ,60636,4710662,,,,,,,ADA S. MCKINLEY COMMUNITY SERVICES,WEST ENGLEWOOD,,,,,Crystal Fielder,Yes,No,No,,,,,,,,,,
1393,chapin_dfss_providers_2011_070212.csv,ADA S. MCKINLEY COMMUNITY SERVICES MCKINLEY-ERSULA HOWARD,7222 S EXCHANGE ,60649,2219711,,,,,,,ADA S. MCKINLEY COMMUNITY SERVICES,SOUTH SHORE,,,,,Stella Sweeten,Yes,No,No,"4357IT(Child Care IT Center), 7035PS(HS Collaboration with C",,,,,,,,,
1394,chapin_dfss_providers_2011_070212.csv,ADA S. MCKINLEY COMMUNITY SERVICES MCKINLEY-MAGGIE DRUMMOND,4301 S WABASH ,60653,3738200,,,,,,,ADA S. MCKINLEY COMMUNITY SERVICES,GRAND BOULEVARD,,,,,Angie Fells,Yes,No,Yes,"4355IT(Child Care IT Center), 4355SA(School Age (SA)), 4355P",,,,,,,,,
1395,chapin_dfss_providers_2011_070212.csv,ADA S. MCKINLEY COMMUNITY SERVICES MCKINLEY-ROSELAND,11410 S EDBROOKE ,60628,4681918,,,,,,,ADA S. MCKINLEY COMMUNITY SERVICES,ROSELAND,,,,,Anna Luna,Yes,No,No,7021PS(HS Collaboration with Childcare),,,,,,,,,
1396,chapin_dfss_providers_2011_070212.csv,ADA S. MCKINLEY COMMUNITY SERVICES MCKINLEY-TRUMBULL PARK,10530 S OGLESBY ,60617,9785341,,,,,,,ADA S. MCKINLEY COMMUNITY SERVICES,SOUTH DEERING,,,,,Damita Brown,Yes,No,No,7051PS(HS Collaboration with Childcare),,,,,,,,,
1397,chapin_dfss_providers_2011_070212.csv,ADA S. MCKINLEY COMMUNITY SERVICES MCKINLEY-WRIGHT RENAISSANCE,7939 S WESTERN ,60620,4768805,,,,,,,ADA S. MCKINLEY COMMUNITY SERVICES,ASHBURN,,,,,Corllis Wright,Yes,Yes,Yes,"2708IT(Child Care IT Center), 2708PS(Child Care PS Center &",,,,,,,,,
1398,chapin_dfss_providers_2011_070212.csv,ADA S. MCKINLEY COMMUNITY SERVICES MONTESSORI ACADEMY,11025 S HALSTED AVE ,60628,2810069,,,,,,,ADA S. MCKINLEY COMMUNITY SERVICES,ROSELAND,,,,,,Yes,No,No,,,,,,,,,,
1399,chapin_dfss_providers_2011_070212.csv,ADA S. MCKINLEY COMMUNITY SERVICES STEPPING STONES CCC,1300 E 75TH ST ,60619,4930000,,,,,,,ADA S. MCKINLEY COMMUNITY SERVICES,SOUTH SHORE,,,,,Dr. Jones,Yes,No,No,,,,,,,,,,
1400,chapin_dfss_providers_2011_070212.csv,ALBANY PARK COMMUNITY CENTER AINSLIE,3401 W AINSLIE ,60625,5395907,,,,,,,ALBANY PARK COMMUNITY CENTER,ALBANY PARK,,,,,John DeJulio,No,No,No,"2502PS(Child Care PS Center & State Pre-K), 2502SA(School Ag",,,,,,,,,
1401,chapin_dfss_providers_2011_070212.csv,ALBANY PARK COMMUNITY CENTER KIMBALL,5121 N KIMBALL ,60625,5095657,,,,,,,ALBANY PARK COMMUNITY CENTER,NORTH PARK,,,,,Amy Labb,Yes,No,No,"3006HD(HS AM), 3007HD(HS PM), 6001IT(EHS), 2498PS(Child Care",,,,,,,,,
1402,chapin_dfss_providers_2011_070212.csv,APPEAL FOR CHARITIES AND GOODWILL APPEALS FOR CHARITIES,50 W 71ST ST ,60621,6515400,,,,,,,APPEAL FOR CHARITIES AND GOODWILL,GREATER GRAND CROSSING,,,,,Charlotte Osei-Bonsu,Yes,No,No,"4354IT(Child Care IT Center), 4354SA(School Age (SA)), 4354P",,,,,,,,,
1403,chapin_dfss_providers_2011_070212.csv,BBF FAMILY SERVICES BBF FAMILY SERVICE,1512 S PULASKI ,60623,2779582,,,,,,,BBF FAMILY SERVICES,NORTH LAWNDALE,,,,,,No,No,No,2616SA(School Age (SA)),,,,,,,,,
1404,chapin_dfss_providers_2011_070212.csv,BEACON THERAPEUTIC BEACON THERAPEUTIC,1912 W 103RD ST ,60643,2981243,,,,,,,BEACON THERAPEUTIC,BEVERLY,,,,,Susan Reyna-Guerrero,No,Yes,No,,,,,,,,,,
1405,chapin_dfss_providers_2011_070212.csv,BOARD TRUSTEES-CITY COLLEGES OF CHICAGO DALEY COLLEGE,7500 S PULASKI RD ,60652,8387562,,,,,,,BOARD TRUSTEES-CITY COLLEGES OF CHICAGO,WEST LAWN,,,,,Maria Sanchez,Yes,No,No,4387PS(Child Care PS Center & State Pre-K),,,,,,,,,
1406,chapin_dfss_providers_2011_070212.csv,BOARD TRUSTEES-CITY COLLEGES OF CHICAGO KENNEDY-KING COLLEGE,710 W 65TH BUILDING Z ,60621,6025481,,,,,,,BOARD TRUSTEES-CITY COLLEGES OF CHICAGO,ENGLEWOOD,,,,,Guadalupe Pacias,Yes,No,No,"7048PS(HS Collaboration with Childcare & PreK), 4384PS(Child",,,,,,,,,
1407,chapin_dfss_providers_2011_070212.csv,BOARD TRUSTEES-CITY COLLEGES OF CHICAGO MALCOLM X COLLEGE,1900 W VAN BUREN ,60612,8507176,,,,,,,BOARD TRUSTEES-CITY COLLEGES OF CHICAGO,NEAR WEST SIDE,,,,,Ereyne Weekes,Yes,No,No,"7025PS (HS Collaboration with Childcare & PreK), 4385PS(Chil",,,,,,,,,
1408,chapin_dfss_providers_2011_070212.csv,BOARD TRUSTEES-CITY COLLEGES OF CHICAGO OLIVE-HARVEY COLLEGE,10001 S WOODLAWN ,60628,2916317,,,,,,,BOARD TRUSTEES-CITY COLLEGES OF CHICAGO,PULLMAN,,,,,Tiffany Carter,Yes,No,No,7056PS(HS Collaboration with Childcare & PreK),,,,,,,,,
1409,chapin_dfss_providers_2011_070212.csv,BOARD TRUSTEES-CITY COLLEGES OF CHICAGO TRUMAN COLLEGE,1145 W WILSON AVE ,60640,8784740,,,,,,,BOARD TRUSTEES-CITY COLLEGES OF CHICAGO,UPTOWN,,,,,Judi Gibian-Mennenga,Yes,No,No,"7099PS(HS Collaboration with Childcare & PreK), 4386PS(Child",,,,,,,,,
1410,chapin_dfss_providers_2011_070212.csv,CAROLE ROBERTSON CENTER FOR LEARNING CAROLE  ROBERTSON CENTER-2929,2929 W 19TH ST ,60623,5211600,,,,,,,CAROLE ROBERTSON CENTER FOR LEARNING,SOUTH LAWNDALE,,,,,Ruby Walker,Yes,Yes,No,,,,,,,,,,
1411,chapin_dfss_providers_2011_070212.csv,CAROLE ROBERTSON CENTER FOR LEARNING CAROLE ROBERTSON CENTER - 3701(OGDEN),3701 W OGDEN ,60623,5228400,,,,,,,CAROLE ROBERTSON CENTER FOR LEARNING,NORTH LAWNDALE,,,,,Tracey Young,Yes,Yes,No,,,,,,,,,,
1412,chapin_dfss_providers_2011_070212.csv,CAROLE ROBERTSON CENTER FOR LEARNING CAROLE ROBERTSON CENTER-2020,2020 W ROOSEVELT RD ,60608,2437300,,,,,,,CAROLE ROBERTSON CENTER FOR LEARNING,NEAR WEST SIDE,,,,,Betty Lee,No,Yes,No,,,,,,,,,,
1413,chapin_dfss_providers_2011_070212.csv,CAROLE ROBERTSON CENTER FOR LEARNING FCCH-ANGELITA YUGSI,6447 S KNOX AVE ,60629,5211600,,,,,,,CAROLE ROBERTSON CENTER FOR LEARNING,CLEARING,,,,,Jolene Martin,Yes,No,No,"5931PS(HS Collaboration with Childcare Homes), 5931IP(EHS Co",,,,,,,,,
1414,chapin_dfss_providers_2011_070212.csv,CAROLE ROBERTSON CENTER FOR LEARNING FCCH-ARACELI BASILE,2124 N CENTRAL PARK AVE ,60647,5211600,,,,,,,CAROLE ROBERTSON CENTER FOR LEARNING,LOGAN SQUARE,,,,,Jolene Martin,Yes,No,No,"5900PS(HS Collaboration with Childcare Homes), 5900IP(EHS Co",,,,,,,,,
1415,chapin_dfss_providers_2011_070212.csv,CAROLE ROBERTSON CENTER FOR LEARNING FCCH-AURORA NUNEZ,2701 W 18TH ST ,60608,5211600,,,,,,,CAROLE ROBERTSON CENTER FOR LEARNING,NORTH LAWNDALE,,,,,Jolene Martin,Yes,Yes,No,"5615PS(HS Collaboration with Childcare Homes), 5615IP(EHS Co",,,,,,,,,
1416,chapin_dfss_providers_2011_070212.csv,CAROLE ROBERTSON CENTER FOR LEARNING FCCH-DARLENE MCGHEE,8055 S WOOD ,60620,9945193,,,,,,,CAROLE ROBERTSON CENTER FOR LEARNING,AUBURN GRESHAM,,,,,Jolene Martin,No,No,No,"6000PS(HS Collaboration with Childcare Homes), 6000IP(EHS Co",,,,,,,,,
1417,chapin_dfss_providers_2011_070212.csv,CAROLE ROBERTSON CENTER FOR LEARNING FCCH-DELONDIA MOTLEY,2252 S CENTRAL PARK AVE ,60623,5211600,,,,,,,CAROLE ROBERTSON CENTER FOR LEARNING,SOUTH LAWNDALE,,,,,Jolene Martin,No,No,No,"5617PS(HS Collaboration with Childcare Homes), 5617IP(EHS Co",,,,,,,,,
1418,chapin_dfss_providers_2011_070212.csv,CAROLE ROBERTSON CENTER FOR LEARNING FCCH-ILEANA GONZALEZ,4250 W 81ST ST ,60652,5211600,,,,,,,CAROLE ROBERTSON CENTER FOR LEARNING,ASHBURN,,,,,Jolene Martin,Yes,No,No,"5606PS(HS Collaboration with Childcare Homes), 5606IP(EHS Co",,,,,,,,,
1419,chapin_dfss_providers_2011_070212.csv,CAROLE ROBERTSON CENTER FOR LEARNING FCCH-KEMISHA ALLEN,6954 S FAIRFIELD ,60629,,,,,,,,CAROLE ROBERTSON CENTER FOR LEARNING,CHICAGO LAWN,,,,,Jolene Martin,No,No,No,5983PS(HS Collaboration with Childcare Homes),,,,,,,,,
1420,chapin_dfss_providers_2011_070212.csv,CAROLE ROBERTSON CENTER FOR LEARNING FCCH-LINDA LEWIS,7312 S SAINT LAWRENCE AVE ,60619,2437225,,,,,,,CAROLE ROBERTSON CENTER FOR LEARNING,GREATER GRAND CROSSING,,,,,Jolene Martin,Yes,No,No,"6100PS(HS Collaboration with Childcare Homes), 6100IP(EHS Co",,,,,,,,,
1421,chapin_dfss_providers_2011_070212.csv,CAROLE ROBERTSON CENTER FOR LEARNING FCCH-LUZ OROZCO,4546 W 67TH ST ,60629,,,,,,,,CAROLE ROBERTSON CENTER FOR LEARNING,WEST LAWN,,,,,Jolene Martin,Yes,No,No,"5975PS(HS Collaboration with Childcare Homes), 5975IP(EHS Co",,,,,,,,,
1422,chapin_dfss_providers_2011_070212.csv,CAROLE ROBERTSON CENTER FOR LEARNING FCCH-MAGDELENA ORTEGA,2318 S HOYNE ,60608,,,,,,,,CAROLE ROBERTSON CENTER FOR LEARNING,LOWER WEST SIDE,,,,,Jolene Martin,Yes,No,No,"5616PS(HS Collaboration with Childcare Homes), 5616IP(EHS Co",,,,,,,,,
1423,chapin_dfss_providers_2011_070212.csv,CAROLE ROBERTSON CENTER FOR LEARNING FCCH-MARIA CEPEDA,4500 S SAWYER AVE ,60632,,,,,,,,CAROLE ROBERTSON CENTER FOR LEARNING,BRIGHTON PARK,,,,,Jolene Martin,No,No,No,"5976PS(HS Collaboration with Childcare Homes), 5976IP(EHS Co",,,,,,,,,
1424,chapin_dfss_providers_2011_070212.csv,CAROLE ROBERTSON CENTER FOR LEARNING FCCH-MARIA FLORES,3443 W 71ST ,60629,5211600,,,,,,,CAROLE ROBERTSON CENTER FOR LEARNING,CHICAGO LAWN,,,,,Jolene Martin,Yes,Yes,No,"5605PS(HS Collaboration with Childcare Homes), 5605IP(EHS Co",,,,,,,,,
1425,chapin_dfss_providers_2011_070212.csv,CAROLE ROBERTSON CENTER FOR LEARNING FCCH-MARIBELLA RODRIGUEZ,1012 N KEDVALE ST ,60608,5211600,,,,,,,CAROLE ROBERTSON CENTER FOR LEARNING,HUMBOLDT PARK,,,,,Jolene Martin,Yes,No,No,"5618PS(HS Collaboration with Childcare Homes), 5618IP(EHS Co",,,,,,,,,
1426,chapin_dfss_providers_2011_070212.csv,CAROLE ROBERTSON CENTER FOR LEARNING FCCH-MARY MURPHY,5418 W JACKSON ST ,60644,5211600,,,,,,,CAROLE ROBERTSON CENTER FOR LEARNING,AUSTIN,,,,,Jolene Martin,No,No,No,"5614PS(HS Collaboration with Childcare Homes), 5614IP(EHS Co",,,,,,,,,
1427,chapin_dfss_providers_2011_070212.csv,CAROLE ROBERTSON CENTER FOR LEARNING FCCH-MICHELLE PADILLA,7973 S KOLIN AVE ,60652,5211600,,,,,,,CAROLE ROBERTSON CENTER FOR LEARNING,ASHBURN,,,,,Jolene Martin,Yes,No,No,"5899PS(HS Collaboration with Childcare Homes), 5899IP(EHS Co",,,,,,,,,
1428,chapin_dfss_providers_2011_070212.csv,CAROLE ROBERTSON CENTER FOR LEARNING FCCH-NORMA JACKSON,935 N MENARD ,60651,,,,,,,,CAROLE ROBERTSON CENTER FOR LEARNING,AUSTIN,,,,,Jolene Martin,Yes,Yes,No,"5897PS(HS Collaboration with Childcare Homes), 5897IP(EHS Co",,,,,,,,,
1429,chapin_dfss_providers_2011_070212.csv,CAROLE ROBERTSON CENTER FOR LEARNING FCCH-PATRICIA HERNANDEZ,4958 S RACINE AVE ,60609,5381198,,,,,,,CAROLE ROBERTSON CENTER FOR LEARNING,NEW CITY,,,,,Jolene Martin,Yes,No,No,"5958PS(HS Collaboration with Childcare Homes), 5958IP(EHS Co",,,,,,,,,
1430,chapin_dfss_providers_2011_070212.csv,CAROLE ROBERTSON CENTER FOR LEARNING FCCH-PATRICIA OROS,2826 W 40TH PL ,60623,5232223,,,,,,,CAROLE ROBERTSON CENTER FOR LEARNING,BRIGHTON PARK,,,,,Jolene Martin,Yes,No,No,"5954PS(HS Collaboration with Childcare Homes), 5954IP(EHS Co",,,,,,,,,
1431,chapin_dfss_providers_2011_070212.csv,CAROLE ROBERTSON CENTER FOR LEARNING FCCH-RHONDA CULVERSON,3826 W 85TH STREET ,60629,5211600,,,,,,,CAROLE ROBERTSON CENTER FOR LEARNING,ASHBURN,,,,,Jolene Martin,No,No,No,"5928PS(HS Collaboration with Childcare Homes), 5926IP(EHS Co",,,,,,,,,
1432,chapin_dfss_providers_2011_070212.csv,CAROLE ROBERTSON CENTER FOR LEARNING FCCH-ROBBIE ANTHONY,5916 W SUPERIOR ,60644,2974124,,,,,,,CAROLE ROBERTSON CENTER FOR LEARNING,AUSTIN,,,,,Jolene Martin,No,No,No,"6101PS(HS Collaboration with Childcare Homes), 6101IP(EHS Co",,,,,,,,,
1433,chapin_dfss_providers_2011_070212.csv,CAROLE ROBERTSON CENTER FOR LEARNING FCCH-SONIA ARBOLEDA,4748 S TRIPP ,60632,2511600,,,,,,,CAROLE ROBERTSON CENTER FOR LEARNING,ARCHER HEIGHTS,,,,,Jolene Martin,Yes,No,No,"5601PS(HS Collaboration with Childcare Homes), 5601IP(EHS Co",,,,,,,,,
1434,chapin_dfss_providers_2011_070212.csv,CAROLE ROBERTSON CENTER FOR LEARNING FCCH-SUSIE CANNON,5921 W RICE ,60651,3784342,,,,,,,CAROLE ROBERTSON CENTER FOR LEARNING,AUSTIN,,,,,Jolene Martin,Yes,Yes,No,"5904PS(HS Collaboration with Childcare Homes), 5904IP(EHS Co",,,,,,,,,
1435,chapin_dfss_providers_2011_070212.csv,CAROLE ROBERTSON CENTER FOR LEARNING FCCH-TITA JACKSON,604 E 88TH ST ,60619,8744913,,,,,,,CAROLE ROBERTSON CENTER FOR LEARNING,CHATHAM,,,,,Jolene Martin,Yes,No,No,5990PS(HS Collaboration with Childcare Homes),,,,,,,,,
1436,chapin_dfss_providers_2011_070212.csv,CAROLE ROBERTSON CENTER FOR LEARNING FCCH-TOSHA KELLY,8050 S HONORE ,60620,,,,,,,,CAROLE ROBERTSON CENTER FOR LEARNING,AUBURN GRESHAM,,,,,Jolene Martin,Yes,No,No,5984PS(HS Collaboration with Childcare Homes),,,,,,,,,
1437,chapin_dfss_providers_2011_070212.csv,CATHOLIC CHARITIES OF THE ARCHDIOCESE OF CHICAGO CHICAGO LAWN,3001 W 59TH ST ,60629,9251085,,,,,,,CATHOLIC CHARITIES OF THE ARCHDIOCESE OF CHICAGO,CHICAGO LAWN,,,,,Virginia Carrillo,Yes,No,No,7040PS(HS Collaboration with Childcare),,,,,,,,,
1438,chapin_dfss_providers_2011_070212.csv,CATHOLIC CHARITIES OF THE ARCHDIOCESE OF CHICAGO GRACE MISSION,5332 S WESTERN ,60609,4761990,,,,,,,CATHOLIC CHARITIES OF THE ARCHDIOCESE OF CHICAGO,GAGE PARK,,,,,Francine Johnson,Yes,No,Yes,"3416PS(HS Collaboration with Childcare & PreK), 2711PS(Child",,,,,,,,,
1439,chapin_dfss_providers_2011_070212.csv,CATHOLIC CHARITIES OF THE ARCHDIOCESE OF CHICAGO OUR LADY OF LOURDES,1449 S KEELER ,60623,5213126,,,,,,,CATHOLIC CHARITIES OF THE ARCHDIOCESE OF CHICAGO,NORTH LAWNDALE,,,,,Deborah O'Brien,Yes,No,Yes,"2488IT(Child Care IT Center), 7030PS(HS Collaboration with C",,,,,,,,,
1440,chapin_dfss_providers_2011_070212.csv,CATHOLIC CHARITIES OF THE ARCHDIOCESE OF CHICAGO OUR LADY OF TEPEYAC,2414 S ALBANY ,60623,2775888,,,,,,,CATHOLIC CHARITIES OF THE ARCHDIOCESE OF CHICAGO,SOUTH LAWNDALE,,,,,Petra Gutierrez,Yes,No,Yes,"2617SA(School Age (SA)), 4382PS(HS Collaboration with Childc",,,,,,,,,
1441,chapin_dfss_providers_2011_070212.csv,CATHOLIC CHARITIES OF THE ARCHDIOCESE OF CHICAGO ST. JOSEPH,4800 S PAULINA ,60609,9272524,,,,,,,CATHOLIC CHARITIES OF THE ARCHDIOCESE OF CHICAGO,NEW CITY,,,,,Janice  Williams,Yes,No,Yes,"2631SA(School Age (SA)), 7041PS(HS Collaboration with Childc",,,,,,,,,
1442,chapin_dfss_providers_2011_070212.csv,CENTERS FOR NEW HORIZONS ALTGELD I,941 E 132ND ST ,60627,4683055,,,,,,,CENTERS FOR NEW HORIZONS,RIVERDALE,,,,,Gloria Lawson,Yes,No,Yes,"4320IT(Child Care IT Center), 7044PS(HS Collaboration with C",,,,,,,,,
1443,chapin_dfss_providers_2011_070212.csv,CENTERS FOR NEW HORIZONS EFFIE ELLIS,4301 S COTTAGE GROVE ,60653,5489839,,,,,,,CENTERS FOR NEW HORIZONS,KENWOOD,,,,,Valerie Jones,Yes,No,Yes,"8012IT(Child Care IT Center), 7116PS(HS Collaboration with C",,,,,,,,,
1444,chapin_dfss_providers_2011_070212.csv,CENTERS FOR NEW HORIZONS IDA B. WELLS AT DAWSON,3901 S STATE ,60609,5367864,,,,,,,CENTERS FOR NEW HORIZONS,GRAND BOULEVARD,,,,,Carolyn Terry,Yes,No,No,"4391IT(Child Care IT Center), 4390PS(HS Collaboration with C",,,,,,,,,
1445,chapin_dfss_providers_2011_070212.csv,CHICAGO CHILD CARE SOCIETY CHICAGO CHILD CARE SOCIETY,5467 S UNIVERSITY AVE ,60615,6430452,,,,,,,CHICAGO CHILD CARE SOCIETY,HYDE PARK,,,,,Licia Palmore,No,Yes,No,,,,,,,,,,
1446,chapin_dfss_providers_2011_070212.csv,CHICAGO COMMONS ASSOCIATION A-Z MALL WORLD,2629 S LAWNDALE ,60623,,,,,,,,CHICAGO COMMONS ASSOCIATION,SOUTH LAWNDALE,,,,,,Yes,No,No,,,,,,,,,,
1447,chapin_dfss_providers_2011_070212.csv,CHICAGO COMMONS ASSOCIATION BETTY'S DAYCARE ACADEMY,5725 W CHICAGO AVE ,60651,2611433,,,,,,,CHICAGO COMMONS ASSOCIATION,AUSTIN,,,,,,Yes,No,No,,,,,,,,,,
1448,chapin_dfss_providers_2011_070212.csv,CHICAGO COMMONS ASSOCIATION CHICAGO URBAN DAYCARE,1248 W 69TH ST ,60636,4833555,,,,,,,CHICAGO COMMONS ASSOCIATION,WEST ENGLEWOOD,,,,,,Yes,No,No,,,,,,,,,,
1449,chapin_dfss_providers_2011_070212.csv,CHICAGO COMMONS ASSOCIATION CHILDREN'S WORLD,3356 S ASHLAND ,60609,5230100,,,,,,,CHICAGO COMMONS ASSOCIATION,MCKINLEY PARK,,,,,,Yes,No,No,,,,,,,,,,
1450,chapin_dfss_providers_2011_070212.csv,CHICAGO COMMONS ASSOCIATION COMPUTER PRESCHOOL ACADEMY,1400 W GARFIELD BLVD ,60609,6275000,,,,,,,CHICAGO COMMONS ASSOCIATION,NEW CITY,,,,,,Yes,No,No,,,,,,,,,,
1451,chapin_dfss_providers_2011_070212.csv,CHICAGO COMMONS ASSOCIATION DIVERSEY DAY CARE,3007 W DIVERSEY ,60647,3427777,,,,,,,CHICAGO COMMONS ASSOCIATION,LOGAN SQUARE,,,,,Alberta Varda,Yes,No,No,,,,,,,,,,
1452,chapin_dfss_providers_2011_070212.csv,CHICAGO COMMONS ASSOCIATION EYES ON THE FUTURE,6969 N RAVENSWOOD ,60626,9730771,,,,,,,CHICAGO COMMONS ASSOCIATION,ROGERS PARK,,,,,Azieb  Gebrehiiwet,Yes,No,No,,,,,,,,,,
1453,chapin_dfss_providers_2011_070212.csv,CHICAGO COMMONS ASSOCIATION GUADALUPANO FAMILY CENTER,1814 S PAULINA ,60608,6663883,,,,,,,CHICAGO COMMONS ASSOCIATION,LOWER WEST SIDE,,,,,Migdalia Young,Yes,No,Yes,"2613IT(Child Care IT Center), 3403PS(HS Collaboration with C",,,,,,,,,
1454,chapin_dfss_providers_2011_070212.csv,CHICAGO COMMONS ASSOCIATION JOYFUL NOISE DAY CARE,4843 W NORTH AVE ,60639,2525990,,,,,,,CHICAGO COMMONS ASSOCIATION,AUSTIN,,,,,Mary Gonzalez,Yes,No,No,,,,,,,,,,
1455,chapin_dfss_providers_2011_070212.csv,CHICAGO COMMONS ASSOCIATION JPE DAYCARE CENTER,8625 S COTTAGE GROVE ,60619,9941300,,,,,,,CHICAGO COMMONS ASSOCIATION,CHATHAM,,,,,Jackie Cuvington,No,No,No,,,,,,,,,,
1456,chapin_dfss_providers_2011_070212.csv,CHICAGO COMMONS ASSOCIATION KIDDIE GARDEN LITTLE ANGELS,4235 S KEDZIE AVE ,60632,3928199,,,,,,,CHICAGO COMMONS ASSOCIATION,BRIGHTON PARK,,,,,Angeles Nunez,Yes,No,No,,,,,,,,,,
1457,chapin_dfss_providers_2011_070212.csv,CHICAGO COMMONS ASSOCIATION KIMBALL DAY CARE,1636 N KIMBALL AVE ,60647,2357200,,,,,,,CHICAGO COMMONS ASSOCIATION,HUMBOLDT PARK,,,,,Alberta Varda,Yes,No,No,,,,,,,,,,
1458,chapin_dfss_providers_2011_070212.csv,CHICAGO COMMONS ASSOCIATION LITTLE PEOPLE'S DAY CARE,7428 N ROGERS AVE ,60626,7612305,,,,,,,CHICAGO COMMONS ASSOCIATION,ROGERS PARK,,,,,Marlene Bansa,Yes,No,No,,,,,,,,,,
1459,chapin_dfss_providers_2011_070212.csv,CHICAGO COMMONS ASSOCIATION LOS PEQUENOS ANGELITOS,3711 W 55TH ST ,60632,2237292,,,,,,,CHICAGO COMMONS ASSOCIATION,WEST ELSDON,,,,,Angeles Nunez,Yes,No,No,,,,,,,,,,
1460,chapin_dfss_providers_2011_070212.csv,CHICAGO COMMONS ASSOCIATION MY PRECIOUS LITTLE ANGELS,7012 W NORTH AVE ,60707,6371708,,,,,,,CHICAGO COMMONS ASSOCIATION,AUSTIN,,,,,Doris Gadberry,Yes,No,No,,,,,,,,,,
1461,chapin_dfss_providers_2011_070212.csv,CHICAGO COMMONS ASSOCIATION NIA FAMILY CENTER,744 N MONTICELLO ,60612,7220115,,,,,,,CHICAGO COMMONS ASSOCIATION,HUMBOLDT PARK,,,,,Sharon Gibson,Yes,No,Yes,"2633IT(Child Care IT Center), 3404PS(HS Collaboration with C",,,,,,,,,
1462,chapin_dfss_providers_2011_070212.csv,CHICAGO COMMONS ASSOCIATION PANDA MONTESSORI,6921 N RIDGE ,60645,3386755,,,,,,,CHICAGO COMMONS ASSOCIATION,ROGERS PARK,,,,,Angela Perry,Yes,No,No,,,,,,,,,,
1463,chapin_dfss_providers_2011_070212.csv,CHICAGO COMMONS ASSOCIATION PAULO FREIRE,1653 W 43RD ST ,60609,8266260,,,,,,,CHICAGO COMMONS ASSOCIATION,NEW CITY,,,,,Jenny Seacat,Yes,No,Yes,"2626IT(Child Care IT Center), 3402PS(HS Collaboration with C",,,,,,,,,
1464,chapin_dfss_providers_2011_070212.csv,CHICAGO COMMONS ASSOCIATION RAINBOW DAYCARE,3250 W IRVING PARK RD ,60618,4788182,,,,,,,CHICAGO COMMONS ASSOCIATION,IRVING PARK,,,,,James Limson,Yes,No,No,,,,,,,,,,
1465,chapin_dfss_providers_2011_070212.csv,CHICAGO COMMONS ASSOCIATION TAYLOR CENTER FOR NEW EXPERIENCES,1633 N HAMLIN ,60647,2278551,,,,,,,CHICAGO COMMONS ASSOCIATION,HUMBOLDT PARK,,,,,Nilda Vargas,Yes,No,Yes,"2629IT(Child Care IT Center), 3401PS(HS Collaboration with C",,,,,,,,,
1466,chapin_dfss_providers_2011_070212.csv,CHICAGO COMMONS ASSOCIATION TOTS EXPRESS LEARNING CENTER,1705 E 87TH ST ,60617,7218687,,,,,,,CHICAGO COMMONS ASSOCIATION,CALUMET HEIGHTS,,,,,Clara Cureton,Yes,No,No,,,,,,,,,,
1467,chapin_dfss_providers_2011_070212.csv,CHICAGO COMMONS ASSOCIATION V & J DAY CARE CENTER,1 E 113THK ST ,60628,7854393,,,,,,,CHICAGO COMMONS ASSOCIATION,ROSELAND,,,,,Reaver Barlow-Bell,Yes,No,No,,,,,,,,,,
1468,chapin_dfss_providers_2011_070212.csv,"CHICAGO PUBLIC SCHOOLS ALDRIDGE, IRA F.",630 E 131ST ST ,60827,5355614,,,,,,,CHICAGO PUBLIC SCHOOLS,RIVERDALE,,,,,Mr. Vincent Payne,Yes,No,No,,,,,,,,,,
1469,chapin_dfss_providers_2011_070212.csv,"CHICAGO PUBLIC SCHOOLS ALTGELD, JOHN P.",7007 S LOOMIS ,60636,5353257,,,,,,,CHICAGO PUBLIC SCHOOLS,WEST ENGLEWOOD,,,,,Mrs. Vera Williams-Willis,Yes,No,No,,,,,,,,,,
1470,chapin_dfss_providers_2011_070212.csv,"CHICAGO PUBLIC SCHOOLS AZUELA, MARIANO",4707 W MARQUETTE ,60629,5357395,,,,,,,CHICAGO PUBLIC SCHOOLS,WEST LAWN,,,,,Carmen Navarro,Yes,No,No,,,,,,,,,,
1471,chapin_dfss_providers_2011_070212.csv,"CHICAGO PUBLIC SCHOOLS BARTON, CLARA",7650 S WOLCOTT AVE ,60620,5353260,,,,,,,CHICAGO PUBLIC SCHOOLS,AUBURN GRESHAM,,,,,Mr. Terrence Carter,Yes,No,No,,,,,,,,,,
1472,chapin_dfss_providers_2011_070212.csv,"CHICAGO PUBLIC SCHOOLS BEETHOVEN, LUDWIG V.",25 W 47TH ST ,60609,5351480,,,,,,,CHICAGO PUBLIC SCHOOLS,GRAND BOULEVARD,,,,,Ms. Dyrice Garner,Yes,No,No,,,,,,,,,,
1473,chapin_dfss_providers_2011_070212.csv,"CHICAGO PUBLIC SCHOOLS BEIDLER, JACOB",3151 W WALNUT ,60612,5346811,,,,,,,CHICAGO PUBLIC SCHOOLS,EAST GARFIELD PARK,,,,,Ms. Shirley Ewings,Yes,No,No,,,,,,,,,,
1474,chapin_dfss_providers_2011_070212.csv,"CHICAGO PUBLIC SCHOOLS BETHUNE, MARY MCLEOD",3033 W ARTHINGTON ,60612,5346890,,,,,,,CHICAGO PUBLIC SCHOOLS,EAST GARFIELD PARK,,,,,Ms. Zipporah Hightower,Yes,No,No,,,,,,,,,,
1475,chapin_dfss_providers_2011_070212.csv,"CHICAGO PUBLIC SCHOOLS BOND, CARRIE JACOBS",7050 S MAY ,60621,5353480,,,,,,,CHICAGO PUBLIC SCHOOLS,ENGLEWOOD,,,,,Mr. Alfonso  Carington,Yes,No,No,,,,,,,,,,
1476,chapin_dfss_providers_2011_070212.csv,"CHICAGO PUBLIC SCHOOLS BRADWELL, MYRA",7736 S BURNHAM ,60649,5356600,,,,,,,CHICAGO PUBLIC SCHOOLS,SOUTH SHORE,,,,,Mr. Justin Moore,Yes,No,No,,,,,,,,,,
1477,chapin_dfss_providers_2011_070212.csv,"CHICAGO PUBLIC SCHOOLS BROWN, RONALD",12607 S UNION ,60628,5355385,,,,,,,CHICAGO PUBLIC SCHOOLS,WEST PULLMAN,,,,,Ms. Gale Baker,Yes,No,No,,,,,,,,,,
1478,chapin_dfss_providers_2011_070212.csv,"CHICAGO PUBLIC SCHOOLS BRUNSON MATH & SCIENCE, MILTON",932 N CENTRAL ,60651,5349674,,,,,,,CHICAGO PUBLIC SCHOOLS,AUSTIN,,,,,Carol Wilson,Yes,No,No,,,,,,,,,,
1479,chapin_dfss_providers_2011_070212.csv,"CHICAGO PUBLIC SCHOOLS BURKE, EDMOND",5356 S KING DR ,60615,5351325,,,,,,,CHICAGO PUBLIC SCHOOLS,WASHINGTON PARK,,,,,Ms. Kimberly Ellison,Yes,No,No,,,,,,,,,,
1480,chapin_dfss_providers_2011_070212.csv,"CHICAGO PUBLIC SCHOOLS CAMERON, DANIEL R.",1234 N MONTICELLO ,60651,5344290,,,,,,,CHICAGO PUBLIC SCHOOLS,HUMBOLDT PARK,,,,,David Kovach,Yes,No,No,,,,,,,,,,
1481,chapin_dfss_providers_2011_070212.csv,"CHICAGO PUBLIC SCHOOLS CARDENAS, LAZARO",2345 S MILLARD ,60623,5341465,,,,,,,CHICAGO PUBLIC SCHOOLS,SOUTH LAWNDALE,,,,,Dr. Jeremy Feiwell,Yes,No,No,,,,,,,,,,
1482,chapin_dfss_providers_2011_070212.csv,"CHICAGO PUBLIC SCHOOLS CARSON, RACHEL",5516 S MAPPLEWOOD AVE ,60629,5359222,,,,,,,CHICAGO PUBLIC SCHOOLS,GAGE PARK,,,,,Javier Arriola-Lopez,Yes,No,No,,,,,,,,,,
1483,chapin_dfss_providers_2011_070212.csv,"CHICAGO PUBLIC SCHOOLS CATHER, WILLA",2908 W WASHINGTON BLVD ,60612,5346780,,,,,,,CHICAGO PUBLIC SCHOOLS,EAST GARFIELD PARK,,,,,Ms. Hattie B. King,Yes,No,No,,,,,,,,,,
1484,chapin_dfss_providers_2011_070212.csv,"CHICAGO PUBLIC SCHOOLS CHALMERS, THOMAS",2745 W ROOSEVELT ,60608,5341720,,,,,,,CHICAGO PUBLIC SCHOOLS,NORTH LAWNDALE,,,,,Ms. Patricia Vaughn-Dossiea,Yes,No,No,,,,,,,,,,
1485,chapin_dfss_providers_2011_070212.csv,CHICAGO PUBLIC SCHOOLS CHASE ELEMENTARY,2021 N POINT ST ,60647,5344185,,,,,,,CHICAGO PUBLIC SCHOOLS,LOGAN SQUARE,,,,,Ms. Elizabeth Gonzalez,Yes,No,No,,,,,,,,,,
1486,chapin_dfss_providers_2011_070212.csv,"CHICAGO PUBLIC SCHOOLS CHOPIN, FREDERIC",2450 W RICE ,60622,5344080,,,,,,,CHICAGO PUBLIC SCHOOLS,WEST TOWN,,,,,Ms. Antuanette  Mester,Yes,No,No,,,,,,,,,,
1487,chapin_dfss_providers_2011_070212.csv,CHICAGO PUBLIC SCHOOLS CLAREMONT MATH AND SCIENCE ACADEMY,2300 W 64TH ST ,60636,5358110,,,,,,,CHICAGO PUBLIC SCHOOLS,CHICAGO LAWN,,,,,Mrs. Rebecca L.  Stinson,Yes,No,No,,,,,,,,,,
1488,chapin_dfss_providers_2011_070212.csv,"CHICAGO PUBLIC SCHOOLS COCKRELL, ONEIDA",30 EAST 61ST STREET ,60637,5350798,,,,,,,CHICAGO PUBLIC SCHOOLS,WASHINGTON PARK,,,,,Dr. Joy Pilcher,Yes,No,No,,,,,,,,,,
1489,chapin_dfss_providers_2011_070212.csv,"CHICAGO PUBLIC SCHOOLS COOPER DUAL LANGUAGE ACADEMY, PETER",1624 W 19TH STREET ,60608,5347205,,,,,,,CHICAGO PUBLIC SCHOOLS,LOWER WEST SIDE,,,,,Ms. Martha  Monrroy,Yes,No,No,,,,,,,,,,
1490,chapin_dfss_providers_2011_070212.csv,"CHICAGO PUBLIC SCHOOLS CORKERY, DANIEL",2510 S KILDARE AVE ,60623,5341650,,,,,,,CHICAGO PUBLIC SCHOOLS,SOUTH LAWNDALE,,,,,Bertha Arredondo,Yes,No,No,,,,,,,,,,
1491,chapin_dfss_providers_2011_070212.csv,"CHICAGO PUBLIC SCHOOLS CURTIS, GEORGE W.",32 EAST 115TH STREET ,60628,5355050,,,,,,,CHICAGO PUBLIC SCHOOLS,ROSELAND,,,,,Mr. Charles H.  Davis,Yes,No,No,,,,,,,,,,
1492,chapin_dfss_providers_2011_070212.csv,"CHICAGO PUBLIC SCHOOLS DALEY, RICHARD J.",5024 S WOLCOTT AVE ,60609,5359091,,,,,,,CHICAGO PUBLIC SCHOOLS,NEW CITY,,,,,Rhonda Hoskins,Yes,No,No,,,,,,,,,,
1493,chapin_dfss_providers_2011_070212.csv,"CHICAGO PUBLIC SCHOOLS DAVIS, NATHAN",3014 W 39TH PLACE ,60632,5354540,,,,,,,CHICAGO PUBLIC SCHOOLS,BRIGHTON PARK,,,,,Mr. Santos Gomez,Yes,No,No,,,,,,,,,,
1494,chapin_dfss_providers_2011_070212.csv,"CHICAGO PUBLIC SCHOOLS DENEEN, CHARLES S.",7240 S WABASH AVE ,60619,5353035,,,,,,,CHICAGO PUBLIC SCHOOLS,GREATER GRAND CROSSING,,,,,Joyce Lockhart-Fisher,Yes,No,No,,,,,,,,,,
1495,chapin_dfss_providers_2011_070212.csv,"CHICAGO PUBLIC SCHOOLS DEPRIEST, OSCAR",139 S PARKSIDE AVE ,60639,5346800,,,,,,,CHICAGO PUBLIC SCHOOLS,AUSTIN,,,,,Minnie Watson,Yes,No,No,,,,,,,,,,
1496,chapin_dfss_providers_2011_070212.csv,"CHICAGO PUBLIC SCHOOLS DETT, R. NATHANIEL",2306 WEST MAYPOLE ,60612,5347160,,,,,,,CHICAGO PUBLIC SCHOOLS,NEAR WEST SIDE,,,,,Ms. Deborah J.  Bonner,Yes,No,No,,,,,,,,,,
1497,chapin_dfss_providers_2011_070212.csv,"CHICAGO PUBLIC SCHOOLS DODGE RENAISSANCE ACADEMY, MARY MAPES",2651 WEST WASHINGTON ,60612,5346640,,,,,,,CHICAGO PUBLIC SCHOOLS,EAST GARFIELD PARK,,,,,Ed. / Debra Moris / Moriarty,Yes,No,No,,,,,,,,,,
1498,chapin_dfss_providers_2011_070212.csv,"CHICAGO PUBLIC SCHOOLS DOOLITTLE, JAMES R.",535 EAST 35TH STREET ,60653,5351050,,,,,,,CHICAGO PUBLIC SCHOOLS,DOUGLAS,,,,,Ms. Lori A. Lennix,Yes,No,No,,,,,,,,,,
1499,chapin_dfss_providers_2011_070212.csv,"CHICAGO PUBLIC SCHOOLS DULLES, JOHN FOSTER",6311 SOUTH CALUMET ,60637,5350690,,,,,,,CHICAGO PUBLIC SCHOOLS,GREATER GRAND CROSSING,,,,,Ms. Pamela Creed,Yes,No,No,,,,,,,,,,
1500,chapin_dfss_providers_2011_070212.csv,"CHICAGO PUBLIC SCHOOLS DVORAK MATH & SCIENCE TECH ACADEMY, ANTON",3615 WEST 16TH ,60623,5341690,,,,,,,CHICAGO PUBLIC SCHOOLS,NORTH LAWNDALE,,,,,Ms. Alma  Thompson,Yes,No,No,,,,,,,,,,
1501,chapin_dfss_providers_2011_070212.csv,"CHICAGO PUBLIC SCHOOLS EBERHART, JOHN F.",3400 W 65TH PL ,60629,5359190,,,,,,,CHICAGO PUBLIC SCHOOLS,CHICAGO LAWN,,,,,Nneka Gunn,Yes,No,No,,,,,,,,,,
1502,chapin_dfss_providers_2011_070212.csv,"CHICAGO PUBLIC SCHOOLS EDWARDS, RICHARD",4815 S KARLOV AVE ,60632,5354875,,,,,,,CHICAGO PUBLIC SCHOOLS,ARCHER HEIGHTS,,,,,Mrs. Judith  Sauri,Yes,No,No,,,,,,,,,,
1503,chapin_dfss_providers_2011_070212.csv,"CHICAGO PUBLIC SCHOOLS ELLINGTON, EDWARD ""DUKE"" K.",243 NORTH PARKSIDE ,60644,5346361,,,,,,,CHICAGO PUBLIC SCHOOLS,AUSTIN,,,,,Ms. Shirley M.  Scott,Yes,No,No,,,,,,,,,,
1504,chapin_dfss_providers_2011_070212.csv,CHICAGO PUBLIC SCHOOLS ESMOND ELEMENTARY,1865 WEST MONTVALE ,60643,5352650,,,,,,,CHICAGO PUBLIC SCHOOLS,MORGAN PARK,,,,,Dr. Angela  Tucker,Yes,No,No,,,,,,,,,,
1505,chapin_dfss_providers_2011_070212.csv,"CHICAGO PUBLIC SCHOOLS FINKL, WILLIAM F.",2332 S WESTERN AVE ,60608,5355850,,,,,,,CHICAGO PUBLIC SCHOOLS,LOWER WEST SIDE,,,,,Mr. Abelino Quintero,Yes,No,No,,,,,,,,,,
1506,chapin_dfss_providers_2011_070212.csv,"CHICAGO PUBLIC SCHOOLS FISKE, JOHN",6145 SOUTH INGLESIDE ,60637,5350990,,,,,,,CHICAGO PUBLIC SCHOOLS,WOODLAWN,,,,,Ms. Cynthia  Miller,Yes,No,No,,,,,,,,,,
1507,chapin_dfss_providers_2011_070212.csv,"CHICAGO PUBLIC SCHOOLS FULLER, MELVILLE W.",4214 S ST LAWRENCE ,60653,5351687,,,,,,,CHICAGO PUBLIC SCHOOLS,GRAND BOULEVARD,,,,,Dr. Patricia D.  Kennedy,Yes,No,No,,,,,,,,,,
1508,chapin_dfss_providers_2011_070212.csv,"CHICAGO PUBLIC SCHOOLS FULTON, ROBERT",5300 S HERMITAGE ,60609,5359000,,,,,,,CHICAGO PUBLIC SCHOOLS,NEW CITY,,,,,Dr. Warletta  Johnson-Brookins,Yes,No,No,,,,,,,,,,
1509,chapin_dfss_providers_2011_070212.csv,"CHICAGO PUBLIC SCHOOLS FUNSTON, FREDERICK",2010 N CENTRAL PARK ,60647,5344125,,,,,,,CHICAGO PUBLIC SCHOOLS,LOGAN SQUARE,,,,,Ms. Nilma Osiecki,Yes,No,No,,,,,,,,,,
1510,chapin_dfss_providers_2011_070212.csv,"CHICAGO PUBLIC SCHOOLS GALE COMM. ACAD., STEPHEN F.",1631 W JONQUIL TERRACE ,60626,5342100,,,,,,,CHICAGO PUBLIC SCHOOLS,ROGERS PARK,,,,,Mr. Richard P.  Glass Jr.,Yes,No,No,,,,,,,,,,
1511,chapin_dfss_providers_2011_070212.csv,"CHICAGO PUBLIC SCHOOLS GARY, JOSEPH E.",3740 W 31ST ST ,60623,5341455,,,,,,,CHICAGO PUBLIC SCHOOLS,SOUTH LAWNDALE,,,,,Mr. Alberto  Juarez,Yes,No,No,,,,,,,,,,
1512,chapin_dfss_providers_2011_070212.csv,"CHICAGO PUBLIC SCHOOLS GOLDBLATT, NATHAN R.",4257 W ADAMS ,60624,5346860,,,,,,,CHICAGO PUBLIC SCHOOLS,WEST GARFIELD PARK,,,,,Ms. Yvette R.  Currington,Yes,No,No,,,,,,,,,,
1513,chapin_dfss_providers_2011_070212.csv,"CHICAGO PUBLIC SCHOOLS GOUDY, WILLIAM C.",5120 N WINTHROP ,60640,5342480,,,,,,,CHICAGO PUBLIC SCHOOLS,UPTOWN,,,,,Pamela S.  Brandt,Yes,No,No,,,,,,,,,,
1514,chapin_dfss_providers_2011_070212.csv,"CHICAGO PUBLIC SCHOOLS GRAHAM, ALEXANDER",4436 S UNION ,60609,5351308,,,,,,,CHICAGO PUBLIC SCHOOLS,NEW CITY,,,,,Mr. John  Nichols,Yes,No,No,,,,,,,,,,
1515,chapin_dfss_providers_2011_070212.csv,"CHICAGO PUBLIC SCHOOLS GRESHAM, WALTER Q.",8524 S GREEN ,60620,5353350,,,,,,,CHICAGO PUBLIC SCHOOLS,AUBURN GRESHAM,,,,,Ms. Diedrus U.  Brown,Yes,No,No,,,,,,,,,,
1516,chapin_dfss_providers_2011_070212.csv,"CHICAGO PUBLIC SCHOOLS GUGGENHEIM, SIMON",7141 S MORGAN ST ,60621,5353587,,,,,,,CHICAGO PUBLIC SCHOOLS,ENGLEWOOD,,,,,Ms. Mary D. McNair,Yes,No,No,,,,,,,,,,
1517,chapin_dfss_providers_2011_070212.csv,"CHICAGO PUBLIC SCHOOLS HALEY, ALEX",11411 S EGGLESTON ,60628,5355345,,,,,,,CHICAGO PUBLIC SCHOOLS,ROSELAND,,,,,Ms. Vaida Williams,Yes,No,No,,,,,,,,,,
1518,chapin_dfss_providers_2011_070212.csv,"CHICAGO PUBLIC SCHOOLS HAMLINE, JOHN H",4747 S BISHOP ST ,60609,5354565,,,,,,,CHICAGO PUBLIC SCHOOLS,NEW CITY,,,,,Valerie Brown,Yes,No,No,,,,,,,,,,
1519,chapin_dfss_providers_2011_070212.csv,"CHICAGO PUBLIC SCHOOLS HAY COMM. ACADEMY, JOHN",1018 N LARAMIE ,60651,5346000,,,,,,,CHICAGO PUBLIC SCHOOLS,AUSTIN,,,,,Ms. Beryl D.  Guy,Yes,No,No,,,,,,,,,,
1520,chapin_dfss_providers_2011_070212.csv,"CHICAGO PUBLIC SCHOOLS HENSON, MATTHEW A.",1326 S AVERS ,60623,5341804,,,,,,,CHICAGO PUBLIC SCHOOLS,NORTH LAWNDALE,,,,,Mr. Robert J.  Pales,Yes,No,No,,,,,,,,,,
1521,chapin_dfss_providers_2011_070212.csv,"CHICAGO PUBLIC SCHOOLS HERBERT, VICTOR",2131 W MONROE ,60612,5347806,,,,,,,CHICAGO PUBLIC SCHOOLS,NEAR WEST SIDE,,,,,Ms. Denise J.  Gillespie,Yes,No,No,,,,,,,,,,
1522,chapin_dfss_providers_2011_070212.csv,"CHICAGO PUBLIC SCHOOLS HIGGINS C.A., THOMAS J.",11710 S MORGAN ,60643,5355625,,,,,,,CHICAGO PUBLIC SCHOOLS,WEST PULLMAN,,,,,Dr. Mabel  Alfred,Yes,No,No,,,,,,,,,,
1523,chapin_dfss_providers_2011_070212.csv,"CHICAGO PUBLIC SCHOOLS HINTON, WILLIAM AUGUSTUS",644 W 71ST STREET ,60621,5353875,,,,,,,CHICAGO PUBLIC SCHOOLS,ENGLEWOOD,,,,,Ms. Pamela  Brunson-Allen,Yes,No,No,,,,,,,,,,
1524,chapin_dfss_providers_2011_070212.csv,"CHICAGO PUBLIC SCHOOLS HOLMES, OLIVER WENDELL",955 W GARFIELD ,60621,5359025,,,,,,,CHICAGO PUBLIC SCHOOLS,ENGLEWOOD,,,,,Ms. Dorothy Susan  Naughton,Yes,No,No,,,,,,,,,,
1525,chapin_dfss_providers_2011_070212.csv,"CHICAGO PUBLIC SCHOOLS HUGHES, LANGSTON",226 W 104TH ST ,60628,5355075,,,,,,,CHICAGO PUBLIC SCHOOLS,ROSELAND,,,,,Anita Muse,Yes,No,No,,,,,,,,,,
1526,chapin_dfss_providers_2011_070212.csv,"CHICAGO PUBLIC SCHOOLS HURLEY, EDWARD N.",3849 W 69TH PLACE ,60629,5352068,,,,,,,CHICAGO PUBLIC SCHOOLS,WEST LAWN,,,,,Mrs. Dolores  Cupp,Yes,No,No,,,,,,,,,,
1527,chapin_dfss_providers_2011_070212.csv,"CHICAGO PUBLIC SCHOOLS JENNER ACADEMY OF THE ARTS, EDWARD",1119 N CLEVELAND ,60610,5348440,,,,,,,CHICAGO PUBLIC SCHOOLS,NEAR NORTH SIDE,,,,,Ms. Zelma  Woodson,Yes,No,No,,,,,,,,,,
1528,chapin_dfss_providers_2011_070212.csv,"CHICAGO PUBLIC SCHOOLS JOHNSON, JAMES WELDON",1504 S ALBANY ,60623,5341833,,,,,,,CHICAGO PUBLIC SCHOOLS,NORTH LAWNDALE,,,,,Ms. Sallie P.   Pinkston,Yes,No,No,,,,,,,,,,
1529,chapin_dfss_providers_2011_070212.csv,CHICAGO PUBLIC SCHOOLS JORDAN COMM.,7414 NORTH WOLCOTT ,60626,5342220,,,,,,,CHICAGO PUBLIC SCHOOLS,ROGERS PARK,,,,,Willie  White,Yes,No,No,,,,,,,,,,
1530,chapin_dfss_providers_2011_070212.csv,"CHICAGO PUBLIC SCHOOLS JUNGMAN, JOSEPH",1746 S MILLER ,60608,5347375,,,,,,,CHICAGO PUBLIC SCHOOLS,LOWER WEST SIDE,,,,,Mrs. Zaida  Hernandez,Yes,No,No,,,,,,,,,,
1531,chapin_dfss_providers_2011_070212.csv,"CHICAGO PUBLIC SCHOOLS KERSHAW, JOSHUA D.",6450 S LOWE ,60621,5353050,,,,,,,CHICAGO PUBLIC SCHOOLS,ENGLEWOOD,,,,,Mrs. Patricia A.  Johnson,Yes,No,No,,,,,,,,,,
1532,chapin_dfss_providers_2011_070212.csv,"CHICAGO PUBLIC SCHOOLS KOHN, ALFRED DAVID",10414 S STATE ,60628,5355489,,,,,,,CHICAGO PUBLIC SCHOOLS,ROSELAND,,,,,Ms. Carol  Briggs,Yes,No,No,,,,,,,,,,
1533,chapin_dfss_providers_2011_070212.csv,"CHICAGO PUBLIC SCHOOLS LAFAYETTE, JEAN DE",2714 W AUGUSTA BLVD ,60622,5344326,,,,,,,CHICAGO PUBLIC SCHOOLS,WEST TOWN,,,,,Mrs. Trisha Shrode,Yes,No,No,,,,,,,,,,
1534,chapin_dfss_providers_2011_070212.csv,"CHICAGO PUBLIC SCHOOLS LAVIZZO, MILDRED I.",138 W 109TH ST ,60628,5355300,,,,,,,CHICAGO PUBLIC SCHOOLS,ROSELAND,,,,,Mrs.Tracey Stelly,Yes,No,No,,,,,,,,,,
1535,chapin_dfss_providers_2011_070212.csv,CHICAGO PUBLIC SCHOOLS LAWNDALE COMM. ACADEMY,3500 W DOUGLAS BLVD ,60623,5341635,,,,,,,CHICAGO PUBLIC SCHOOLS,NORTH LAWNDALE,,,,,Ms. Jeannine M. Wolf,Yes,No,No,,,,,,,,,,
1536,chapin_dfss_providers_2011_070212.csv,"CHICAGO PUBLIC SCHOOLS LINNE, CARL VON",3221 N SACRAMENTO ,60618,5345262,,,,,,,CHICAGO PUBLIC SCHOOLS,AVONDALE,,,,,Mr. Daniel W.  Rohan,Yes,No,No,,,,,,,,,,
1537,chapin_dfss_providers_2011_070212.csv,CHICAGO PUBLIC SCHOOLS LITTLE VILLAGE,2620 S LAWNDALE AVE ,60623,5341880,,,,,,,CHICAGO PUBLIC SCHOOLS,SOUTH LAWNDALE,,,,,Elsa Carmona,Yes,No,No,,,,,,,,,,
1538,chapin_dfss_providers_2011_070212.csv,"CHICAGO PUBLIC SCHOOLS LLOYD, HENRY D.",2103 N LAMON AV ,60639,5343070,,,,,,,CHICAGO PUBLIC SCHOOLS,BELMONT CRAGIN,,,,,Dr. Miryam  Assaf-Keller,Yes,No,No,,,,,,,,,,
1539,chapin_dfss_providers_2011_070212.csv,"CHICAGO PUBLIC SCHOOLS MADISON, JAMES",7433 S DORCHESTER ,60619,5350551,,,,,,,CHICAGO PUBLIC SCHOOLS,SOUTH SHORE,,,,,Dr. Beverly J.  Greene,Yes,No,No,,,,,,,,,,
1540,chapin_dfss_providers_2011_070212.csv,"CHICAGO PUBLIC SCHOOLS MASON, ROSWELL B.",4216 W 19TH ST ,60623,5341530,,,,,,,CHICAGO PUBLIC SCHOOLS,NORTH LAWNDALE,,,,,Ms. Tonya  Tolbert,Yes,No,No,,,,,,,,,,
1541,chapin_dfss_providers_2011_070212.csv,"CHICAGO PUBLIC SCHOOLS MAY COMMUNITY ACADEMY, HORATIO",512 S LAVERGNE ,60644,5346140,,,,,,,CHICAGO PUBLIC SCHOOLS,AUSTIN,,,,,Roger  Lewis,Yes,No,No,,,,,,,,,,
1542,chapin_dfss_providers_2011_070212.csv,"CHICAGO PUBLIC SCHOOLS MAYO, WILLIAM J. & CHARLES H.",249 E 39TH ST ,60653,5351260,,,,,,,CHICAGO PUBLIC SCHOOLS,GRAND BOULEVARD,,,,,Ms. Nadine D.  Dillanado,Yes,No,No,,,,,,,,,,
1543,chapin_dfss_providers_2011_070212.csv,"CHICAGO PUBLIC SCHOOLS MCCLELLAN, GEORGE B.",3527 S WALLACE ,60609,5351732,,,,,,,CHICAGO PUBLIC SCHOOLS,BRIDGEPORT,,,,,Mary E.  Garcia-Humphreys,Yes,No,No,,,,,,,,,,
1544,chapin_dfss_providers_2011_070212.csv,"CHICAGO PUBLIC SCHOOLS MCCORMICK, CYRUS H.",2712 S SAWYER AVE ,60623,5357252,,,,,,,CHICAGO PUBLIC SCHOOLS,SOUTH LAWNDALE,,,,,ms. Virginia S. Rivera,Yes,No,No,,,,,,,,,,
1545,chapin_dfss_providers_2011_070212.csv,"CHICAGO PUBLIC SCHOOLS MCCUTCHEON MAIN, JOHN T.",4846 N SHERIDAN ,60640,5342680,,,,,,,CHICAGO PUBLIC SCHOOLS,UPTOWN,,,,,Mrs. Carol Ann  Lang,Yes,No,No,,,,,,,,,,
1546,chapin_dfss_providers_2011_070212.csv,"CHICAGO PUBLIC SCHOOLS MCDOWELL, MARY E.",1419 E 89TH ST ,60619,5356404,,,,,,,CHICAGO PUBLIC SCHOOLS,CALUMET HEIGHTS,,,,,Dr. Jo La Tanya Easterling-Hood,Yes,No,No,,,,,,,,,,
1547,chapin_dfss_providers_2011_070212.csv,"CHICAGO PUBLIC SCHOOLS MCKAY, FRANCIS M.",6901 S FAIRFIELD AVE ,60629,5359505,,,,,,,CHICAGO PUBLIC SCHOOLS,CHICAGO LAWN,,,,,Mrs. Dawn Prather-Hawk,Yes,No,No,,,,,,,,,,
1548,chapin_dfss_providers_2011_070212.csv,"CHICAGO PUBLIC SCHOOLS MCNAIR ACADEMY CENTER, RONALD E.",4820 W WALTON ,60651,5348980,,,,,,,CHICAGO PUBLIC SCHOOLS,AUSTIN,,,,,Dr. Shirley  Dillard,Yes,No,No,,,,,,,,,,
1549,chapin_dfss_providers_2011_070212.csv,"CHICAGO PUBLIC SCHOOLS MCPHERSON, JAMES B.",4728 N WOLCOTT AV ,60640,5342625,,,,,,,CHICAGO PUBLIC SCHOOLS,LINCOLN SQUARE,,,,,Ms. Carmen A.  Mendoza,Yes,No,No,,,,,,,,,,
1550,chapin_dfss_providers_2011_070212.csv,"CHICAGO PUBLIC SCHOOLS MONROE, JAMES",3651 W SCHUBERT AVE ,60647,5344155,,,,,,,CHICAGO PUBLIC SCHOOLS,LOGAN SQUARE,,,,,Mr. Edwin  Rivera,Yes,No,No,,,,,,,,,,
1551,chapin_dfss_providers_2011_070212.csv,"CHICAGO PUBLIC SCHOOLS MORGAN, GARRETT A.",8407 S KERFOOT ,60620,5353366,,,,,,,CHICAGO PUBLIC SCHOOLS,AUBURN GRESHAM,,,,,Mrs. Linda E.  Walker,Yes,No,No,,,,,,,,,,
1552,chapin_dfss_providers_2011_070212.csv,CHICAGO PUBLIC SCHOOLS MORTON CAREER ACADEMY,431 N TROY ,60612,5346791,,,,,,,CHICAGO PUBLIC SCHOOLS,HUMBOLDT PARK,,,,,Ms. Phyllis L.   McCune,Yes,No,No,,,,,,,,,,
1553,chapin_dfss_providers_2011_070212.csv,CHICAGO PUBLIC SCHOOLS N.T.A. (NATIONAL TEACHERS ACADEMY),55 W CERMAK ,60616,5349970,,,,,,,CHICAGO PUBLIC SCHOOLS,NEAR SOUTH SIDE,,,,,Ms. Amy G.  Rome,Yes,No,No,,,,,,,,,,
1554,chapin_dfss_providers_2011_070212.csv,"CHICAGO PUBLIC SCHOOLS NASH, HENRY H.",4837 W ERIE ST ,60644,5346125,,,,,,,CHICAGO PUBLIC SCHOOLS,AUSTIN,,,,,Ms. Tresa D.  Dunbar,Yes,No,No,,,,,,,,,,
1555,chapin_dfss_providers_2011_070212.csv,CHICAGO PUBLIC SCHOOLS NEW FIELD PRIMARY SCHOOL,1707 W MORSE ,60626,5342760,,,,,,,CHICAGO PUBLIC SCHOOLS,ROGERS PARK,,,,,Ms. Blanca A.  Trevino,Yes,No,No,,,,,,,,,,
1556,chapin_dfss_providers_2011_070212.csv,CHICAGO PUBLIC SCHOOLS NICHOLSON MATH AND SCIENCE,6006 S PEORIA ST ,60621,5353285,,,,,,,CHICAGO PUBLIC SCHOOLS,ENGLEWOOD,,,,,Mr. Rodney L.  Hull,Yes,No,No,,,,,,,,,,
1557,chapin_dfss_providers_2011_070212.csv,"CHICAGO PUBLIC SCHOOLS NIXON, WILLIAM P.",2121 N KEELER AVE ,60639,5344375,,,,,,,CHICAGO PUBLIC SCHOOLS,HERMOSA,,,,,Herman Escobar,Yes,No,No,,,,,,,,,,
1558,chapin_dfss_providers_2011_070212.csv,"CHICAGO PUBLIC SCHOOLS O'KEEFFE, ISABELL C.",6940 S MERRILL ,60649,5350600,,,,,,,CHICAGO PUBLIC SCHOOLS,SOUTH SHORE,,,,,Mrs. Carolyn D.  Townes,Yes,No,No,,,,,,,,,,
1559,chapin_dfss_providers_2011_070212.csv,"CHICAGO PUBLIC SCHOOLS O'TOOLE, LUKE",6550 S SEELEY ,60636,5359040,,,,,,,CHICAGO PUBLIC SCHOOLS,WEST ENGLEWOOD,,,,,Mr. Erick D.  Pruitt,Yes,No,No,,,,,,,,,,
1560,chapin_dfss_providers_2011_070212.csv,"CHICAGO PUBLIC SCHOOLS PEABODY, ELIZABETH",1444 W AUGUSTA BLVD ,60622,5344170,,,,,,,CHICAGO PUBLIC SCHOOLS,WEST TOWN,,,,,Mr. Federico  Flores,Yes,No,No,,,,,,,,,,
1561,chapin_dfss_providers_2011_070212.csv,CHICAGO PUBLIC SCHOOLS PECK SCHOOL,3826 W 58TH ST ,60629,5352450,,,,,,,CHICAGO PUBLIC SCHOOLS,WEST ELSDON,,,,,Okab Hassan,Yes,No,No,,,,,,,,,,
1562,chapin_dfss_providers_2011_070212.csv,"CHICAGO PUBLIC SCHOOLS PENN, WILLIAM",1616 S AVERS ,60623,5341665,,,,,,,CHICAGO PUBLIC SCHOOLS,NORTH LAWNDALE,,,,,Mrs. Sherryl  Moore-Ollie,Yes,No,No,,,,,,,,,,
1563,chapin_dfss_providers_2011_070212.csv,"CHICAGO PUBLIC SCHOOLS PEREZ, MANUEL",1241 W 19TH STREET ,60608,5347650,,,,,,,CHICAGO PUBLIC SCHOOLS,LOWER WEST SIDE,,,,,Mrs. Sylvia  Stamatoglou,Yes,No,No,,,,,,,,,,
1564,chapin_dfss_providers_2011_070212.csv,"CHICAGO PUBLIC SCHOOLS PICCOLO SPECIALTY SCHOOL, BRIAN",1040 N KEELER AVENUE ,60651,5344425,,,,,,,CHICAGO PUBLIC SCHOOLS,HUMBOLDT PARK,,,,,Mrs. Althea  Hammond,Yes,No,No,,,,,,,,,,
1565,chapin_dfss_providers_2011_070212.csv,"CHICAGO PUBLIC SCHOOLS PICKARD, JOSIAH L.",2301 W 21ST STREET ,60608,5357280,,,,,,,CHICAGO PUBLIC SCHOOLS,LOWER WEST SIDE,,,,,Rigo  Hernandez,Yes,No,No,,,,,,,,,,
1566,chapin_dfss_providers_2011_070212.csv,CHICAGO PUBLIC SCHOOLS PILSEN COMM. ACADEMY,1420 W 17TH STREET ,60608,5347675,,,,,,,CHICAGO PUBLIC SCHOOLS,LOWER WEST SIDE,,,,,Dr. Adel M.  Ali,Yes,No,No,,,,,,,,,,
1567,chapin_dfss_providers_2011_070212.csv,"CHICAGO PUBLIC SCHOOLS REAVIS, WILLIAM CLAUDE",834 E 50TH STREET ,60615,5351060,,,,,,,CHICAGO PUBLIC SCHOOLS,KENWOOD,,,,,Mr. Michael T. Johnson,Yes,No,No,,,,,,,,,,
1568,chapin_dfss_providers_2011_070212.csv,"CHICAGO PUBLIC SCHOOLS REVERE, PAUL",1010 E 72ND STREET ,60619,5350618,,,,,,,CHICAGO PUBLIC SCHOOLS,GREATER GRAND CROSSING,,,,,Mrs. Veronica J.  Thompson,Yes,No,No,,,,,,,,,,
1569,chapin_dfss_providers_2011_070212.csv,"CHICAGO PUBLIC SCHOOLS ROBINSON, JACKIE R.",4225 S LAKE PARK AVE ,60653,5351777,,,,,,,CHICAGO PUBLIC SCHOOLS,OAKLAND,,,,,Ms. Keshia B.  Warner,Yes,No,No,,,,,,,,,,
1570,chapin_dfss_providers_2011_070212.csv,"CHICAGO PUBLIC SCHOOLS RUGGLES, MARTHA M.",7831 S PRAIRIE AVE ,60619,5353085,,,,,,,CHICAGO PUBLIC SCHOOLS,GREATER GRAND CROSSING,,,,,Ida Patterson,Yes,No,No,,,,,,,,,,
1571,chapin_dfss_providers_2011_070212.csv,"CHICAGO PUBLIC SCHOOLS RYDER, WILLIAM H.",8716 S WALLACE STREET ,60620,5353843,,,,,,,CHICAGO PUBLIC SCHOOLS,AUBURN GRESHAM,,,,,Mrs. Janice  Preston,Yes,No,No,,,,,,,,,,
1572,chapin_dfss_providers_2011_070212.csv,"CHICAGO PUBLIC SCHOOLS RYERSON, MARTIN A.",646 N LAWNDALE ,60624,5346700,,,,,,,CHICAGO PUBLIC SCHOOLS,HUMBOLDT PARK,,,,,Mr. Lorenzo Russell,Yes,No,No,,,,,,,,,,
1573,chapin_dfss_providers_2011_070212.csv,"CHICAGO PUBLIC SCHOOLS SANDOVAL, SOCORRO",5534 S SAINT LOUIS AVE ,60629,5350457,,,,,,,CHICAGO PUBLIC SCHOOLS,GAGE PARK,,,,,Dr. Ana Expinoza,Yes,No,No,,,,,,,,,,
1574,chapin_dfss_providers_2011_070212.csv,"CHICAGO PUBLIC SCHOOLS SAUCEDO SCHOLASTIC ACADEMY, MARIA",2850 W 24 TH BLVD ,60623,5341770,,,,,,,CHICAGO PUBLIC SCHOOLS,SOUTH LAWNDALE,,,,,Mrs. Leticia L.  Gonzalez,Yes,No,No,,,,,,,,,,
1575,chapin_dfss_providers_2011_070212.csv,"CHICAGO PUBLIC SCHOOLS SEWARD, WILLIAM H.",4600 S HERMITAGE AVE ,60609,5354890,,,,,,,CHICAGO PUBLIC SCHOOLS,NEW CITY,,,,,Marcey Reyes,Yes,No,No,,,,,,,,,,
1576,chapin_dfss_providers_2011_070212.csv,"CHICAGO PUBLIC SCHOOLS SEXTON, AUSTIN O.",6020 S LANGLEY ,60637,5350640,,,,,,,CHICAGO PUBLIC SCHOOLS,WOODLAWN,,,,,Mrs. Ginger V. Bryant,Yes,No,No,,,,,,,,,,
1577,chapin_dfss_providers_2011_070212.csv,"CHICAGO PUBLIC SCHOOLS SHERWOOD, JESSIE",245 W 57TH ST ,60621,5350829,,,,,,,CHICAGO PUBLIC SCHOOLS,ENGLEWOOD,,,,,Alice Buzanis,Yes,No,No,,,,,,,,,,
1578,chapin_dfss_providers_2011_070212.csv,"CHICAGO PUBLIC SCHOOLS SHIELDS, JAMES",4250 S ROCKWELL ST ,60632,5357285,,,,,,,CHICAGO PUBLIC SCHOOLS,BRIGHTON PARK,,,,,Philip Salemi,Yes,No,No,,,,,,,,,,
1579,chapin_dfss_providers_2011_070212.csv,CHICAGO PUBLIC SCHOOLS SONGHAI LEARNING INSTITUTE,11725 S PERRY AVE ,60628,5355547,,,,,,,CHICAGO PUBLIC SCHOOLS,WEST PULLMAN,,,,,Ms. Taliva A. Tillman,Yes,No,No,,,,,,,,,,
1580,chapin_dfss_providers_2011_070212.csv,CHICAGO PUBLIC SCHOOLS SPENCER MATH AND SCIENCE ACADEMY,214 N LAVERGNE ,60644,5346150,,,,,,,CHICAGO PUBLIC SCHOOLS,AUSTIN,,,,,Mr. Shawn L.  Jackson,Yes,No,No,,,,,,,,,,
1581,chapin_dfss_providers_2011_070212.csv,"CHICAGO PUBLIC SCHOOLS STAGG, AMOS A.",7424 S MORGAN ST ,60621,5353565,,,,,,,CHICAGO PUBLIC SCHOOLS,ENGLEWOOD,,,,,Ms. Ruth A. Miller,Yes,No,No,,,,,,,,,,
1582,chapin_dfss_providers_2011_070212.csv,"CHICAGO PUBLIC SCHOOLS STEWART, GRAEME",4525 N KENMORE ,60640,5342640,,,,,,,CHICAGO PUBLIC SCHOOLS,UPTOWN,,,,,Ms. Patricia A.  Turner,Yes,No,No,,,,,,,,,,
1583,chapin_dfss_providers_2011_070212.csv,"CHICAGO PUBLIC SCHOOLS STOCKTON, JOSEPH",4420 N BEACON ST ,60640,5342450,,,,,,,CHICAGO PUBLIC SCHOOLS,UPTOWN,,,,,Ms. Jill Besenjak,Yes,No,No,,,,,,,,,,
1584,chapin_dfss_providers_2011_070212.csv,"CHICAGO PUBLIC SCHOOLS STOWE, HARRIET BEECHER",3444 W WABANSIA ,60647,5344175,,,,,,,CHICAGO PUBLIC SCHOOLS,HUMBOLDT PARK,,,,,Dr. Charles L.  Kyle,Yes,No,No,,,,,,,,,,
1585,chapin_dfss_providers_2011_070212.csv,"CHICAGO PUBLIC SCHOOLS TANNER, HENRY O.",7350 S EVANS ,60619,5353870,,,,,,,CHICAGO PUBLIC SCHOOLS,GREATER GRAND CROSSING,,,,,Mrs. Mona T. Miller,Yes,No,No,,,,,,,,,,
1586,chapin_dfss_providers_2011_070212.csv,"CHICAGO PUBLIC SCHOOLS THOMAS CENTER, VELMA",3625 S HOYNE ,60609,5354088,,,,,,,CHICAGO PUBLIC SCHOOLS,MCKINLEY PARK,,,,,Elizabeth Najera,Yes,No,No,,,,,,,,,,
1587,chapin_dfss_providers_2011_070212.csv,"CHICAGO PUBLIC SCHOOLS THORP, JAMES N.",8914 S BUFFALO AVE ,60617,5356250,,,,,,,CHICAGO PUBLIC SCHOOLS,SOUTH CHICAGO,,,,,Tony Fisher,Yes,No,No,,,,,,,,,,
1588,chapin_dfss_providers_2011_070212.csv,"CHICAGO PUBLIC SCHOOLS WARD, LAURA S.",410 N MONTICELLO ,60624,5346440,,,,,,,CHICAGO PUBLIC SCHOOLS,HUMBOLDT PARK,,,,,Ms. Relanda  Hobbs,Yes,No,No,,,,,,,,,,
1589,chapin_dfss_providers_2011_070212.csv,"CHICAGO PUBLIC SCHOOLS WHITTIER, JOHN GREENLEAF",1900 W 23RD ST ,60608,5354590,,,,,,,CHICAGO PUBLIC SCHOOLS,LOWER WEST SIDE,,,,,Ms. Zoila  Garcia,Yes,No,No,,,,,,,,,,
1590,chapin_dfss_providers_2011_070212.csv,"CHICAGO PUBLIC SCHOOLS WILLIAMS, DANIEL H.",2710 S DEARBORN ,60616,5349226,,,,,,,CHICAGO PUBLIC SCHOOLS,DOUGLAS,,,,,Ms. Lashonn Graham,Yes,No,No,,,,,,,,,,
1591,chapin_dfss_providers_2011_070212.csv,CHICAGO PUBLIC SCHOOLS WOODLAWN COMMUNITY SCHOOL,6657 S KIMBARK AVE ,60637,5350801,,,,,,,CHICAGO PUBLIC SCHOOLS,WOODLAWN,,,,,Frank  Embil,Yes,No,No,,,,,,,,,,
1592,chapin_dfss_providers_2011_070212.csv,"CHICAGO PUBLIC SCHOOLS WOODSON SOUTH, CARTER G.",4414 S EVANS ,60653,5351280,,,,,,,CHICAGO PUBLIC SCHOOLS,GRAND BOULEVARD,,,,,Ms. Renee A. Thomas,Yes,No,No,,,,,,,,,,
1593,chapin_dfss_providers_2011_070212.csv,"CHICAGO PUBLIC SCHOOLS YATES, RICHARD",1839 N RICHMOND ,60647,5344550,,,,,,,CHICAGO PUBLIC SCHOOLS,LOGAN SQUARE,,,,,Mr. Harry  Randell,Yes,No,No,,,,,,,,,,
1594,chapin_dfss_providers_2011_070212.csv,"CHICAGO PUBLIC SCHOOLS YOUNG, ELLA FLAGG",1434 N PARKSIDE ,60651,5346200,,,,,,,CHICAGO PUBLIC SCHOOLS,AUSTIN,,,,,Ms. Crystal Bell,Yes,No,No,,,,,,,,,,
1595,chapin_dfss_providers_2011_070212.csv,CHICAGO PUBLIC SCHOOLS ZAPATA ACADEMY,2728 S KOSTNER AVE ,60623,5341390,,,,,,,CHICAGO PUBLIC SCHOOLS,SOUTH LAWNDALE,,,,,Ms. Ruth F.  Garcia,Yes,No,No,,,,,,,,,,
1596,chapin_dfss_providers_2011_070212.csv,CHICAGO STATE UNIVERSITY FCCH-EVELYN CROSS,724 W 116TH PL ,60628,4374020,,,,,,,CHICAGO STATE UNIVERSITY,WEST PULLMAN,,,,,Evelyn Lang,No,Yes,No,"5992IP(EHS Collaboration Enhanced Home IP), 5992IT(EHS Enhan",,,,,,,,,
1597,chapin_dfss_providers_2011_070212.csv,CHICAGO STATE UNIVERSITY FCCH-LATASHIE  TAIWO,8609 S INGLESIDE ,60619,4880716,,,,,,,CHICAGO STATE UNIVERSITY,CHATHAM,,,,,Evelyn Lang,No,Yes,No,"5971IP(EHS Collaboration Enhanced Home IP), 5973IT(Child Car",,,,,,,,,
1598,chapin_dfss_providers_2011_070212.csv,CHICAGO STATE UNIVERSITY GRANT CREATIVE LEARNING CENTER,4025 S DREXEL BLVD ,60653,2858440,,,,,,,CHICAGO STATE UNIVERSITY,OAKLAND,,,,,Mary Billingsey,Yes,No,Yes,"4383SA(School Age (SA)), 4383PS(Child Care PS Center), 4370P",,,,,,,,,
1599,chapin_dfss_providers_2011_070212.csv,CHICAGO STATE UNIVERSITY RAISE UP A CHILD,124 E 113 ST ,60628,7851172,,,,,,,CHICAGO STATE UNIVERSITY,ROSELAND,,,,,,Yes,Yes,Yes,"4138PS(Child Care PS Center), 4134PS(HS Collaboration with C",,,,,,,,,
1600,chapin_dfss_providers_2011_070212.csv,CHICAGO STATE UNIVERSITY SHINING STAR EARLY LEARNING ACADEMY - II,854 E 79TH ST ,60619,4191994,,,,,,,CHICAGO STATE UNIVERSITY,GREATER GRAND CROSSING,,,,,Shnida Wray,Yes,No,No,4142PS(HS Collaboration with Childcare),,,,,,,,,
1601,chapin_dfss_providers_2011_070212.csv,CHICAGO STATE UNIVERSITY SHINING STAR EARLY LEARNING ACADEMY - III,338 E 103RD ST ,60628,4191994,,,,,,,CHICAGO STATE UNIVERSITY,ROSELAND,,,,,Erica Shirley,Yes,No,No,4143PS(HS Collaboration with Childcare),,,,,,,,,
1602,chapin_dfss_providers_2011_070212.csv,CHICAGO STATE UNIVERSITY THE LOVE LEARNING CENTER,228 E 61ST ST ,60637,7520243,,,,,,,CHICAGO STATE UNIVERSITY,WASHINGTON PARK,,,,,Burchell Love,Yes,No,No,,,,,,,,,,
1603,chapin_dfss_providers_2011_070212.csv,CHICAGO STATE UNIVERSITY TINY TOTS VILLA,8128 S KING DR ,60641,4836251,,,,,,,CHICAGO STATE UNIVERSITY,CHATHAM,,,,,Judith Tyson,Yes,No,Yes,"4292PS(Child Care PS Center), 4205PS(HS Collaboration with C",,,,,,,,,
1604,chapin_dfss_providers_2011_070212.csv,CHICAGO YOUTH CENTERS ABC,3415 W 13TH PL ,60623,7625655,,,,,,,CHICAGO YOUTH CENTERS,NORTH LAWNDALE,,,,,Talina Bowie,Yes,No,No,,,,,,,,,,
1605,chapin_dfss_providers_2011_070212.csv,CHICAGO YOUTH CENTERS CENTRO NUESTRO,3222 W DIVISION ,60651,4893157,,,,,,,CHICAGO YOUTH CENTERS,HUMBOLDT PARK,,,,,Valerie Meritt,Yes,No,No,4301PS(HS Collaboration with Childcare & PreK),,,,,,,,,
1606,chapin_dfss_providers_2011_070212.csv,CHICAGO YOUTH CENTERS CUDDLE CARE ACADEMY,4800 S LAKE PARK AVE ,60615,2851114,,,,,,,CHICAGO YOUTH CENTERS,KENWOOD,,,,,,Yes,No,No,,,,,,,,,,
1607,chapin_dfss_providers_2011_070212.csv,CHICAGO YOUTH CENTERS DOROTHY GAUTREAUX,975 E 132ND ST ,60627,2911000,,,,,,,CHICAGO YOUTH CENTERS,RIVERDALE,,,,,Glenda Williams,Yes,No,No,,,,,,,,,,
1608,chapin_dfss_providers_2011_070212.csv,CHICAGO YOUTH CENTERS EZZARD CHARLES SCHOOL,7946 S ASHLAND AVE ,60620,4870227,,,,,,,CHICAGO YOUTH CENTERS,AUBURN GRESHAM,,,,,Eldora Davis,Yes,No,No,,,,,,,,,,
1609,chapin_dfss_providers_2011_070212.csv,CHICAGO YOUTH CENTERS FELLOWSHIP HOUSE,844 W 32ND ST ,60608,3262282,,,,,,,CHICAGO YOUTH CENTERS,BRIDGEPORT,,,,,Levory Wilder,Yes,No,No,,,,,,,,,,
1610,chapin_dfss_providers_2011_070212.csv,CHICAGO YOUTH CENTERS JUST LIKE HOME,301 E 79TH ST ,60619,7830955,,,,,,,CHICAGO YOUTH CENTERS,CHATHAM,,,,,,No,No,No,,,,,,,,,,
1611,chapin_dfss_providers_2011_070212.csv,CHICAGO YOUTH CENTERS KIDS R US,7453 S VINCENNES ,60621,8465437,,,,,,,CHICAGO YOUTH CENTERS,GREATER GRAND CROSSING,,,,,Tammy Oliver,Yes,No,No,,,,,,,,,,
1612,chapin_dfss_providers_2011_070212.csv,CHICAGO YOUTH CENTERS LOTTS OF LOVE,1139 W 79TH ST ,60620,8744954,,,,,,,CHICAGO YOUTH CENTERS,AUBURN GRESHAM,,,,,Carol Quinn,Yes,No,No,,,,,,,,,,
1613,chapin_dfss_providers_2011_070212.csv,CHICAGO YOUTH CENTERS MT. MORIAH-TAYLOR,1501 N HARDING ,60651,2785837,,,,,,,CHICAGO YOUTH CENTERS,HUMBOLDT PARK,,,,,Elizabeth Heilbronn,Yes,No,No,7065PS(HS Collaboration with Childcare & PreK),,,,,,,,,
1614,chapin_dfss_providers_2011_070212.csv,CHICAGO YOUTH CENTERS PATHWAY,6535 S KEDZIE AVE ,60629,,,,,,,,CHICAGO YOUTH CENTERS,CHICAGO LAWN,,,,,,Yes,No,No,,,,,,,,,,
1615,chapin_dfss_providers_2011_070212.csv,CHICAGO YOUTH CENTERS PATHWAYS TO LEARNING CC,3418 W 79TH ST ,60652,7765439,,,,,,,CHICAGO YOUTH CENTERS,ASHBURN,,,,,Carol Quinn,Yes,No,No,,,,,,,,,,
1616,chapin_dfss_providers_2011_070212.csv,CHICAGO YOUTH CENTERS PATHWAYS TO LEARNING CC1,3460 W 79TH ST ,60652,4369244,,,,,,,CHICAGO YOUTH CENTERS,ASHBURN,,,,,Carol Quinn,Yes,No,No,,,,,,,,,,
1617,chapin_dfss_providers_2011_070212.csv,CHICAGO YOUTH CENTERS RACHEL'S 1,3430 W ROOSEVELT RD ,60624,5331837,,,,,,,CHICAGO YOUTH CENTERS,NORTH LAWNDALE,,,,,Carol Quinn,Yes,No,No,,,,,,,,,,
1618,chapin_dfss_providers_2011_070212.csv,CHICAGO YOUTH CENTERS RACHEL'S 2,5242 W NORTH AVE ,60639,2371444,,,,,,,CHICAGO YOUTH CENTERS,AUSTIN,,,,,Carol Quinn,Yes,No,No,,,,,,,,,,
1619,chapin_dfss_providers_2011_070212.csv,CHICAGO YOUTH CENTERS REBECCA CROWN,7601 S PHILLIPS ,60649,7310444,,,,,,,CHICAGO YOUTH CENTERS,SOUTH SHORE,,,,,Annette Anthony,Yes,No,No,7088PS(HS Collaboration with Childcare & PreK),,,,,,,,,
1620,chapin_dfss_providers_2011_070212.csv,CHICAGO YOUTH CENTERS ROSELAND CHILD DEVELOPMENT,461 E 111TH ST ,60627,4684405,,,,,,,CHICAGO YOUTH CENTERS,ROSELAND,,,,,Leola Clay,Yes,No,No,7066PS(HS Collaboration with Childcare & PreK),,,,,,,,,
1621,chapin_dfss_providers_2011_070212.csv,CHICAGO YOUTH CENTERS SHINING STAR 1,3012 16 E 92ND ST ,60617,9787827,,,,,,,CHICAGO YOUTH CENTERS,SOUTH DEERING,,,,,Carol Quinn,Yes,No,No,,,,,,,,,,
1622,chapin_dfss_providers_2011_070212.csv,CHINESE AMERICAN SERVICE LEAGUE CHINESE AMERICAN SERVICE LEAGUE CHILD DEV CTR,2141 S TAN COURT ,60616,7910454,,,,,,,CHINESE AMERICAN SERVICE LEAGUE,ARMOUR SQUARE,,,,,Weilian Xin,Yes,No,Yes,"3248PS (HS Collaboration with Childcare & PreK), 2771PS (Chi",,,,,,,,,
1623,chapin_dfss_providers_2011_070212.csv,CHRISTOPHER HOUSE GREENVIEW,2507 N GREENVIEW ,60614,4721083,,,,,,,CHRISTOPHER HOUSE,LINCOLN PARK,,,,,Aimee Washington,Yes,No,No,"2681IT(Child Care IT Center), 3406PS(HS Collaboration with C",,,,,,,,,
1624,chapin_dfss_providers_2011_070212.csv,CHRISTOPHER HOUSE LOGAN SQUARE,3255 W ALTGELD ,60647,2354073,,,,,,,CHRISTOPHER HOUSE,LOGAN SQUARE,,,,,Carmen Velez,Yes,No,Yes,"4321IT(Child Care IT Center), 7087PS(HS Collaboration with C",,,,,,,,,
1625,chapin_dfss_providers_2011_070212.csv,CHRISTOPHER HOUSE ROGERS PARK,7059 N GREENVIEW ,60626,2745477,,,,,,,CHRISTOPHER HOUSE,ROGERS PARK,,,,,Joni Rudds,Yes,No,Yes,"7073PS(HS Collaboration with Childcare & PreK), 4147PS(Child",,,,,,,,,
1626,chapin_dfss_providers_2011_070212.csv,CHRISTOPHER HOUSE UPTOWN,4701 N WINTHROP ,60640,7694540,,,,,,,CHRISTOPHER HOUSE,UPTOWN,,,,,Karen Ross William,Yes,No,No,"2672IT(Child Care IT Center), 3405PS(HS Collaboration with C",,,,,,,,,
1627,chapin_dfss_providers_2011_070212.csv,CHURCH OF GOD TRUE BELIEVERS CHURCH OF GOD COMMUNITY DAY CARE,1738 W MARQUETTE ST ,60636,,,,,,,,CHURCH OF GOD TRUE BELIEVERS,WEST ENGLEWOOD,,,,,Rev. Sheila Sims,Yes,No,No,7130PS(HS Collaboration with Childcare),,,,,,,,,
1628,chapin_dfss_providers_2011_070212.csv,COMMUNITY LEARNING CENTER COMMUNITY LEARNING CENTER,10612 S WENTWORTH ,60628,9284104,,,,,,,COMMUNITY LEARNING CENTER,ROSELAND,,,,,Wanda Avery,Yes,No,No,,,,,,,,,,
1629,chapin_dfss_providers_2011_070212.csv,DOROTHY SUTTON BRANCH DOROTHY SUTTON BRANCH,8601 S STATE ,60619,7234445,,,,,,,DOROTHY SUTTON BRANCH,CHATHAM,,,,,Ms. Ola Kirksey,Yes,No,No,7123PS(HS Collaboration with Childcare),,,,,,,,,
1630,chapin_dfss_providers_2011_070212.csv,"DOUGLASS-TUBMAN YOUTH MINISTRIES,INC. DOUGLASS-TUBMAN CHILD DEV CTR",5010 W CHICAGO AVE ,60651,6266581,,,,,,,"DOUGLASS-TUBMAN YOUTH MINISTRIES,INC.",AUSTIN,,,,,Mrs. Andrea Young,No,No,No,"2101SA(School Age (SA)), 2100PS(Child Care PS Center)",,,,,,,,,
1631,chapin_dfss_providers_2011_070212.csv,EASTER SEALS SOCIETY OF METROPOLITAN CHICAGO ALLISON'S INFANT & TODDLER CENTER,234 E 114TH ST ,60628,8404502,,,,,,,EASTER SEALS SOCIETY OF METROPOLITAN CHICAGO,ROSELAND,,,,,Allison Caldwell,No,Yes,No,,,,,,,,,,
1632,chapin_dfss_providers_2011_070212.csv,EASTER SEALS SOCIETY OF METROPOLITAN CHICAGO CHANNINGS CHILD CARE,5701 W DIVISION ST ,60651,4572990,,,,,,,EASTER SEALS SOCIETY OF METROPOLITAN CHICAGO,AUSTIN,,,,,Ruth Kimble,Yes,No,No,,,,,,,,,,
1633,chapin_dfss_providers_2011_070212.csv,EASTER SEALS SOCIETY OF METROPOLITAN CHICAGO CHILDREN'S INTERNATIONAL ACADEMY,5850 W ROOSEVELT RD ,60644,2870808,,,,,,,EASTER SEALS SOCIETY OF METROPOLITAN CHICAGO,AUSTIN,,,,,Gaby  Servin,Yes,No,No,,,,,,,,,,
1634,chapin_dfss_providers_2011_070212.csv,EASTER SEALS SOCIETY OF METROPOLITAN CHICAGO CHIPPER PRESCHOOL,8225 S KEDZIE ,60652,7785757,,,,,,,EASTER SEALS SOCIETY OF METROPOLITAN CHICAGO,ASHBURN,,,,,Ms. Nelson,Yes,No,No,,,,,,,,,,
1635,chapin_dfss_providers_2011_070212.csv,EASTER SEALS SOCIETY OF METROPOLITAN CHICAGO FIFTH CITY,3411 W JACKSON ,60624,8268686,,,,,,,EASTER SEALS SOCIETY OF METROPOLITAN CHICAGO,EAST GARFIELD PARK,,,,,Ms. Veal,Yes,No,No,,,,,,,,,,
1636,chapin_dfss_providers_2011_070212.csv,EASTER SEALS SOCIETY OF METROPOLITAN CHICAGO FIRST START CHILDREN'S ACADEMY,4753 W WASHINGTON BLVD ,60644,3794928,,,,,,,EASTER SEALS SOCIETY OF METROPOLITAN CHICAGO,AUSTIN,,,,,Ms. Cachet,Yes,Yes,No,,,,,,,,,,
1637,chapin_dfss_providers_2011_070212.csv,EASTER SEALS SOCIETY OF METROPOLITAN CHICAGO FIRST START CHILDREN'S ACADEMY SOUTH,5700 S ASHLAND AVE 1ST FL ,60636,2777090,,,,,,,EASTER SEALS SOCIETY OF METROPOLITAN CHICAGO,WEST ENGLEWOOD,,,,,Beverly Mims,No,No,No,,,,,,,,,,
1638,chapin_dfss_providers_2011_070212.csv,EASTER SEALS SOCIETY OF METROPOLITAN CHICAGO FRESH START DAY CARE CENTER,6924 W NORTH AVENUE ,60635,4792870,,,,,,,EASTER SEALS SOCIETY OF METROPOLITAN CHICAGO,AUSTIN,,,,,Claudia Aguayo,Yes,No,No,,,,,,,,,,
1639,chapin_dfss_providers_2011_070212.csv,EASTER SEALS SOCIETY OF METROPOLITAN CHICAGO GILCHRIST MARCHMAN,1001 W ROOSEVELT RD 606 ,81559,4927402,,,,,,,EASTER SEALS SOCIETY OF METROPOLITAN CHICAGO,NEAR WEST SIDE,,,,,Ms. Adrienne Hamilton,Yes,Yes,Yes,"4249IT(Child Care IT Center), 7012PS(HS Collaboration with C",,,,,,,,,
1640,chapin_dfss_providers_2011_070212.csv,EASTER SEALS SOCIETY OF METROPOLITAN CHICAGO IMANI'S CHILDREN,11443 S HALSTED ST ,60628,6609667,,,,,,,EASTER SEALS SOCIETY OF METROPOLITAN CHICAGO,ROSELAND,,,,,Marianne Powell-Dee,Yes,Yes,No,,,,,,,,,,
1641,chapin_dfss_providers_2011_070212.csv,EASTER SEALS SOCIETY OF METROPOLITAN CHICAGO LITTLE GIANTS,3863 W HARRISON ,60624,2656330,,,,,,,EASTER SEALS SOCIETY OF METROPOLITAN CHICAGO,WEST GARFIELD PARK,,,,,Ms. Granberry,Yes,No,No,,,,,,,,,,
1642,chapin_dfss_providers_2011_070212.csv,EASTER SEALS SOCIETY OF METROPOLITAN CHICAGO LIZ-NEY-LAND #1,4610 S PULASKI RD ,60632,2479779,,,,,,,EASTER SEALS SOCIETY OF METROPOLITAN CHICAGO,ARCHER HEIGHTS,,,,,Liz Medrano,Yes,No,No,,,,,,,,,,
1643,chapin_dfss_providers_2011_070212.csv,EASTER SEALS SOCIETY OF METROPOLITAN CHICAGO LIZ-NEY-LAND #2,6010 S PULASKI ,60632,5828355,,,,,,,EASTER SEALS SOCIETY OF METROPOLITAN CHICAGO,WEST LAWN,,,,,Liz Medrano,Yes,No,No,,,,,,,,,,
1644,chapin_dfss_providers_2011_070212.csv,EASTER SEALS SOCIETY OF METROPOLITAN CHICAGO LORDANCHILD DAYCARE,3344 W 79TH ST ,60652,4344918,,,,,,,EASTER SEALS SOCIETY OF METROPOLITAN CHICAGO,ASHBURN,,,,,Quentin Donald,Yes,No,No,,,,,,,,,,
1645,chapin_dfss_providers_2011_070212.csv,EASTER SEALS SOCIETY OF METROPOLITAN CHICAGO MOTHER'S TOUCH,2501 W 71ST ST ,60629,4363177,,,,,,,EASTER SEALS SOCIETY OF METROPOLITAN CHICAGO,CHICAGO LAWN,,,,,Ethel Daniels,Yes,No,No,,,,,,,,,,
1646,chapin_dfss_providers_2011_070212.csv,EASTER SEALS SOCIETY OF METROPOLITAN CHICAGO NEAR SOUTH SIDE CHILD DEVELOPMENT CENTER,2214 S FEDERAL ST ,60616,5483614,,,,,,,EASTER SEALS SOCIETY OF METROPOLITAN CHICAGO,ARMOUR SQUARE,,,,,Catherine Rokusek,No,Yes,No,"4388IP(EHS Collaboration Enhanced Center-IP), 4388EP(EHS Col",,,,,,,,,
1647,chapin_dfss_providers_2011_070212.csv,EASTER SEALS SOCIETY OF METROPOLITAN CHICAGO RACHEL'S LEARNING CENTER #1,3430 W ROOSEVELT RD ,60624,5330444,,,,,,,EASTER SEALS SOCIETY OF METROPOLITAN CHICAGO,NORTH LAWNDALE,,,,,Rochelle Ray,No,Yes,No,,,,,,,,,,
1648,chapin_dfss_providers_2011_070212.csv,EASTER SEALS SOCIETY OF METROPOLITAN CHICAGO RACHEL'S LEARNING CENTER #2,5242 W NORTH AVE ,60639,2371444,,,,,,,EASTER SEALS SOCIETY OF METROPOLITAN CHICAGO,AUSTIN,,,,,Rochelle Ray,No,Yes,No,,,,,,,,,,
1649,chapin_dfss_providers_2011_070212.csv,EASTER SEALS SOCIETY OF METROPOLITAN CHICAGO WHIZ KIDS NURSERY CENTER,518 W 103RD ST ,60628,2339445,,,,,,,EASTER SEALS SOCIETY OF METROPOLITAN CHICAGO,WASHINGTON HEIGHTS,,,,,Diana Ross,No,Yes,No,,,,,,,,,,
1650,chapin_dfss_providers_2011_070212.csv,EL HOGAR DEL NINO FCCH-BLANCA ALATORRE,5738 S KENNETH AVE ,60623,5812872,,,,,,,EL HOGAR DEL NINO,WEST ELSDON,,,,,,Yes,Yes,No,"5861PS(HS Collaboration with Childcare Homes), 5653IP(EHS Co",,,,,,,,,
1651,chapin_dfss_providers_2011_070212.csv,EL HOGAR DEL NINO FCCH-ISABEL GUITERREZ,3448 W 59TH ST ,60623,4987085,,,,,,,EL HOGAR DEL NINO,GAGE PARK,,,,,,Yes,Yes,No,"5863PS(HS Collaboration with Childcare Homes), 5656IP(EHS Co",,,,,,,,,
1652,chapin_dfss_providers_2011_070212.csv,EL HOGAR DEL NINO FCCH-LOURDES VELASCO,4718 S LECLAIRE AVE ,60638,5822250,,,,,,,EL HOGAR DEL NINO,GARFIELD RIDGE,,,,,,Yes,Yes,No,"5867PS(HS Collaboration with Childcare Homes), 5814IP(EHS Co",,,,,,,,,
1653,chapin_dfss_providers_2011_070212.csv,EL HOGAR DEL NINO FCCH-MARIA GUZMAN,5548 S TRIPP AVE ,60629,7354542,,,,,,,EL HOGAR DEL NINO,WEST ELSDON,,,,,,Yes,Yes,No,"5873PS(HS Collaboration with Childcare Homes), 5657IP(EHS Co",,,,,,,,,
1654,chapin_dfss_providers_2011_070212.csv,EL HOGAR DEL NINO FCCH-ROSA LOPEZ,4924 S KEELER ,60632,5818869,,,,,,,EL HOGAR DEL NINO,ARCHER HEIGHTS,,,,,,Yes,Yes,No,"5878PS(HS Collaboration with Childcare Homes), 5659IP(EHS Co",,,,,,,,,
1655,chapin_dfss_providers_2011_070212.csv,EL HOGAR DEL NINO LOOMIS EL HOGAR,1718 S LOOMIS ,60608,5630644,,,,,,,EL HOGAR DEL NINO,LOWER WEST SIDE,,,,,Aurea De Jesus,Yes,No,No,"4136IT(Child Care IT Center), 8027PS(HS Collaboration with C",,,,,,,,,
1656,chapin_dfss_providers_2011_070212.csv,EL VALOR AMAZING GRACE CHILD CARE CENTER,11123 S HALSTED ST ,60628,2643636,,,,,,,EL VALOR,ROSELAND,,,,,Rachel Adesola,Yes,No,No,,,,,,,,,,
1657,chapin_dfss_providers_2011_070212.csv,EL VALOR BRENDA'S KIDS CLUB,3552 E 118TH STREET ,60617,6460007,,,,,,,EL VALOR,HEGEWISCH,,,,,Brenda Lopez,Yes,No,No,,,,,,,,,,
1658,chapin_dfss_providers_2011_070212.csv,EL VALOR CARLOS CANTU,2434 S KILDARE ,60623,2422700,,,,,,,EL VALOR,SOUTH LAWNDALE,,,,,Irma Carmona,Yes,No,Yes,"4305IT(Child Care IT Center), 4305PS(Child Care PS Center),",,,,,,,,,
1659,chapin_dfss_providers_2011_070212.csv,EL VALOR CENTRO INFANTIL (PUERTO RICAN COMM),2739 W DIVISION ,60622,3428866,,,,,,,EL VALOR,WEST TOWN,,,,,Xochiti Ramirez,Yes,No,No,,,,,,,,,,
1660,chapin_dfss_providers_2011_070212.csv,EL VALOR CHICAGO PRE-SCHOOL ACADEMY,532 E 87TH ST ,60619,4884495,,,,,,,EL VALOR,CHATHAM,,,,,Deneen Grover,Yes,No,No,,,,,,,,,,
1661,chapin_dfss_providers_2011_070212.csv,EL VALOR FCCH-PATRICIA COBA,2719 S MILLARD ,60623,5222345,,,,,,,EL VALOR,SOUTH LAWNDALE,,,,,Nina Duena,No,No,No,"5991IT(Child Care Home IT), 5991PS(Child Care Home PS), 5991",,,,,,,,,
1662,chapin_dfss_providers_2011_070212.csv,EL VALOR GUADALUPE REYES CHILDREN & FAMILY CENTER,1951 W 19TH ST ,60608,9972021,,,,,,,EL VALOR,LOWER WEST SIDE,,,,,Lydia Marcos,Yes,No,Yes,"4141PS(Child Care PS Center), 7026PS(HS Collaboration with C",,,,,,,,,
1663,chapin_dfss_providers_2011_070212.csv,EL VALOR KIDDY KARE LEARNING CENTER,4444 S KEDZIE ,60632,2476642,,,,,,,EL VALOR,BRIGHTON PARK,,,,,Marina Lopez,Yes,No,No,,,,,,,,,,
1664,chapin_dfss_providers_2011_070212.csv,EL VALOR KIDZ COLONY,6287 SOUTH ARCHER AVE ,60638,7678522,,,,,,,EL VALOR,GARFIELD RIDGE,,,,,Joy Avila,Yes,No,No,,,,,,,,,,
1665,chapin_dfss_providers_2011_070212.csv,EL VALOR LITTLE BROWN BEAR PRE-SCHOOL,8046 S WESTERN AVE ,60620,4343508,,,,,,,EL VALOR,ASHBURN,,,,,Deborah Broyles,Yes,No,No,,,,,,,,,,
1666,chapin_dfss_providers_2011_070212.csv,EL VALOR LITTLE KIDS VILLAGE,2656 W 71ST ST ,60629,7764753,,,,,,,EL VALOR,CHICAGO LAWN,,,,,Sherri Thompson,Yes,No,No,,,,,,,,,,
1667,chapin_dfss_providers_2011_070212.csv,EL VALOR LITTLE LEARNERS,5923 W 63RD STREET ,60638,5815541,,,,,,,EL VALOR,CLEARING,,,,,Marilyn Gonzalez,Yes,No,No,,,,,,,,,,
1668,chapin_dfss_providers_2011_070212.csv,EL VALOR LITTLE TYKES I,1711 W 35TH STREET ,60609,2547710,,,,,,,EL VALOR,MCKINLEY PARK,,,,,Sara Matta,Yes,No,No,,,,,,,,,,
1669,chapin_dfss_providers_2011_070212.csv,EL VALOR LITTLE TYKES II,1723 W 35TH STREET ,60609,5791791,,,,,,,EL VALOR,MCKINLEY PARK,,,,,Laura Gonzalez,Yes,No,No,,,,,,,,,,
1670,chapin_dfss_providers_2011_070212.csv,EL VALOR MARI'S BUMBLE BEE ACADEMY,9725 S COMMERCIAL AVE ,60617,2217692,,,,,,,EL VALOR,SOUTH DEERING,,,,,Marisol Lopez,Yes,No,No,,,,,,,,,,
1671,chapin_dfss_providers_2011_070212.csv,EL VALOR NEW AGE PREPARATORY (8940 S COTTAGE GROVE AVE),8940 S COTTAGE GROVE AVE ,60619,7832431,,,,,,,EL VALOR,CHATHAM,,,,,Tanya Furlow,No,No,No,,,,,,,,,,
1672,chapin_dfss_providers_2011_070212.csv,EL VALOR NEW AGE PREPARATORY ACADEMY (10951 S MICHIGAN AVE),10951 S MICHIGAN AVE ,60628,7857737,,,,,,,EL VALOR,ROSELAND,,,,,Tanya Furlow,Yes,No,No,,,,,,,,,,
1673,chapin_dfss_providers_2011_070212.csv,EL VALOR REY GONZALEZ CHILDREN AND FAMILY CENTER,3050 E 92ND ST ,60617,7219311,,,,,,,EL VALOR,SOUTH CHICAGO,,,,,Monica Williams,Yes,No,Yes,"2170IT(Child Care IT Center), 2170PS(Child Care PS Center),",,,,,,,,,
1674,chapin_dfss_providers_2011_070212.csv,EL VALOR TEDDY BEAR 1 (51ST STREET),2649 W 51ST STREET ,60632,4760700,,,,,,,EL VALOR,GAGE PARK,,,,,Francy Torres,Yes,No,No,,,,,,,,,,
1675,chapin_dfss_providers_2011_070212.csv,EL VALOR TEDDY BEAR 2 (COLUMBUS DR),3473 W COLUMBUS ,60652,4342327,,,,,,,EL VALOR,ASHBURN,,,,,Connie Gayton,Yes,No,No,,,,,,,,,,
1676,chapin_dfss_providers_2011_070212.csv,EL VALOR TEDDY BEAR 3 (6401 S PULASKI RD),6401 S PULASKI ,60629,2842292,,,,,,,EL VALOR,WEST LAWN,,,,,Natasha Catchings,Yes,No,No,,,,,,,,,,
1677,chapin_dfss_providers_2011_070212.csv,EL VALOR TEDDY BEAR 5 (5160 S PULASKI),5160 S PULASKI RD ,60632,2847030,,,,,,,EL VALOR,WEST ELSDON,,,,,Mary Zirngibl,Yes,No,No,,,,,,,,,,
1678,chapin_dfss_providers_2011_070212.csv,EL VALOR YOUNG SCHOLARS DEV. INS.,3038 W 59TH STREET ,60629,9181944,,,,,,,EL VALOR,GAGE PARK,,,,,Elizabeth Campbell,Yes,No,No,,,,,,,,,,
1679,chapin_dfss_providers_2011_070212.csv,ERIE NEIGHBORHOOD HOUSE CHARTER SCHOOL,1405 N WASHTENAW AVE ,60622,,,,,,,,ERIE NEIGHBORHOOD HOUSE,WEST TOWN,,,,,,No,No,No,,,,,,,,,,
1680,chapin_dfss_providers_2011_070212.csv,ERIE NEIGHBORHOOD HOUSE ERIE COMMUNITY CENTER,1701 W SUPERIOR ,60622,5635800,,,,,,,ERIE NEIGHBORHOOD HOUSE,WEST TOWN,,,,,Celena Roldan,Yes,No,No,"2640IT(Child Care IT Center), 3256PS(HS Collaboration with C",,,,,,,,,
1681,chapin_dfss_providers_2011_070212.csv,ERIE NEIGHBORHOOD HOUSE ERIE HOUSE,1347 W ERIE ,60622,,,,,,,,ERIE NEIGHBORHOOD HOUSE,WEST TOWN,,,,,Mr. Dennis Puhr,No,No,No,2648SA(School Age (SA)),,,,,,,,,
1682,chapin_dfss_providers_2011_070212.csv,ERIE NEIGHBORHOOD HOUSE ERIE NEIGHBORHOOD HOUSE - CORTEZ SA,2510 W CORTEZ ,60622,4867161,,,,,,,ERIE NEIGHBORHOOD HOUSE,WEST TOWN,,,,,Amy Kinney,No,No,Yes,4148SA(School Age (SA)),,,,,,,,,
1683,chapin_dfss_providers_2011_070212.csv,ERIE NEIGHBORHOOD HOUSE FCCH-ANALIDA SANCHEZ SITE,1914 N SAYRE ,60707,4322213,,,,,,,ERIE NEIGHBORHOOD HOUSE,AUSTIN,,,,,Cynthia Suarez,No,No,No,"5697IP(EHS Collaboration Enhanced Home IP), 5700IT(Child Car",,,,,,,,,
1684,chapin_dfss_providers_2011_070212.csv,ERIE NEIGHBORHOOD HOUSE FCCH-CARMEN L. VEGA SITE,3528 W PIERCE ,60618,4322213,,,,,,,ERIE NEIGHBORHOOD HOUSE,HUMBOLDT PARK,,,,,Cynthia Suarez,No,No,No,"5702IT(Child Care Home IT), 5702PS(Child Care Home PS), 5702",,,,,,,,,
1685,chapin_dfss_providers_2011_070212.csv,ERIE NEIGHBORHOOD HOUSE FCCH-CARMEN MARTELL SITE,3509 W PIERCE ,60651,4322213,,,,,,,ERIE NEIGHBORHOOD HOUSE,HUMBOLDT PARK,,,,,Cynthia Saurez,No,No,No,"5692IT(Child Care Home IT), 5692PS(Child Care Home PS), 5692",,,,,,,,,
1686,chapin_dfss_providers_2011_070212.csv,ERIE NEIGHBORHOOD HOUSE FCCH-GLADYS LORENZO,2636 N WASHTENAW AVE ,60647,,,,,,,,ERIE NEIGHBORHOOD HOUSE,LOGAN SQUARE,,,,,,No,Yes,No,"5999PS(HS Collaboration with Childcare Homes), 5999IP(EHS Co",,,,,,,,,
1687,chapin_dfss_providers_2011_070212.csv,ERIE NEIGHBORHOOD HOUSE FCCH-IRAIDA GARRIGA SITE,2523 N PARKSIDE ,60639,4322213,,,,,,,ERIE NEIGHBORHOOD HOUSE,BELMONT CRAGIN,,,,,Cynthia Suarez,No,Yes,No,"6110IP(EHS Collaboration Enhanced Home IP), 5684IT(Child Car",,,,,,,,,
1688,chapin_dfss_providers_2011_070212.csv,ERIE NEIGHBORHOOD HOUSE FCCH-JESUS E. RAMIREZ SITE,4414 N CHRISTIANA ,60625,4322213,,,,,,,ERIE NEIGHBORHOOD HOUSE,ALBANY PARK,,,,,Cynthia Suarez,No,Yes,No,"5966IP(EHS Collaboration Enhanced Home IP), 5694IT(Child Car",,,,,,,,,
1689,chapin_dfss_providers_2011_070212.csv,ERIE NEIGHBORHOOD HOUSE FCCH-LUCIA RUBIO SITE,5522 W NEWPORT ST ,60641,4322213,,,,,,,ERIE NEIGHBORHOOD HOUSE,PORTAGE PARK,,,,,Cynthia Saurez,No,Yes,No,"6112IP(EHS Collaboration Enhanced Home IP), 5695IT(Child Car",,,,,,,,,
1690,chapin_dfss_providers_2011_070212.csv,ERIE NEIGHBORHOOD HOUSE FCCH-MARGARITA DEL VALLE SITE,1004 N KEDZIE AVE ,60651,4322213,,,,,,,ERIE NEIGHBORHOOD HOUSE,HUMBOLDT PARK,,,,,Cynthia Suarez,No,Yes,No,"5682IP(EHS Collaboration Enhanced Home IP), 5934IT(Child Car",,,,,,,,,
1691,chapin_dfss_providers_2011_070212.csv,ERIE NEIGHBORHOOD HOUSE FCCH-MARIA BAUTISTA SITE,1422 N CENTRAL AVE ,60651,4322213,,,,,,,ERIE NEIGHBORHOOD HOUSE,AUSTIN,,,,,Cynthia Suarez,No,Yes,No,"5678IP(EHS Collaboration Enhanced Home IP), 5813IT(Child Car",,,,,,,,,
1692,chapin_dfss_providers_2011_070212.csv,ERIE NEIGHBORHOOD HOUSE FCCH-MARIA GUERRERO SITE,2311 N KEATING ,60639,4322213,,,,,,,ERIE NEIGHBORHOOD HOUSE,BELMONT CRAGIN,,,,,Cythnia Suarez,No,No,No,,,,,,,,,,
1693,chapin_dfss_providers_2011_070212.csv,ERIE NEIGHBORHOOD HOUSE FCCH-MARIA MAHECHA SITE,4151 W LAWRENCE ,60630,4322213,,,,,,,ERIE NEIGHBORHOOD HOUSE,ALBANY PARK,,,,,Cynthia Suarez,No,Yes,No,"5688IP(EHS Collaboration Enhanced Home IP), 5691IT(Child Car",,,,,,,,,
1694,chapin_dfss_providers_2011_070212.csv,ERIE NEIGHBORHOOD HOUSE FCCH-MARIA YOLANDA GUERRO SITE,4848 N KEELER ST ,60630,4322213,,,,,,,ERIE NEIGHBORHOOD HOUSE,ALBANY PARK,,,,,Cynthia Suarez,No,Yes,No,"5686IP(EHS Collaboration Enhanced Home IP), 5689IT(Child Car",,,,,,,,,
1695,chapin_dfss_providers_2011_070212.csv,ERIE NEIGHBORHOOD HOUSE FCCH-MARISELA MARTINEZ SITE,5018 W DRUMMOND PL ,60639,4322213,,,,,,,ERIE NEIGHBORHOOD HOUSE,BELMONT CRAGIN,,,,,Cythnia Suarez,No,Yes,No,"6111IP(EHS Collaboration Enhanced Home IP), 5693IT(Child Car",,,,,,,,,
1696,chapin_dfss_providers_2011_070212.csv,ERIE NEIGHBORHOOD HOUSE FCCH-MIGDALIA SEPULVEDA SITE,1254 N MAPLEWOOD ,60622,4322213,,,,,,,ERIE NEIGHBORHOOD HOUSE,WEST TOWN,,,,,Cynthia Suarez,No,No,No,"5701IT(Child Care Home IT), 5701PS(Child Care Home PS), 5701",,,,,,,,,
1697,chapin_dfss_providers_2011_070212.csv,ERIE NEIGHBORHOOD HOUSE FCCH-NURY RODRIGUEZ,2420 W LEMOYNE AVE 1 ,60622,,,,,,,,ERIE NEIGHBORHOOD HOUSE,WEST TOWN,,,,,,No,Yes,No,"5919IP(EHS Collaboration Enhanced Home IP), 5922IT(Child Car",,,,,,,,,
1698,chapin_dfss_providers_2011_070212.csv,ERIE NEIGHBORHOOD HOUSE FCCH-PATRICIA CASTANDA SITE,4906 N LAWNDALE ,60625,4322213,,,,,,,ERIE NEIGHBORHOOD HOUSE,ALBANY PARK,,,,,Cythnia Suarez,No,Yes,No,"5679IP(EHS Collaboration Enhanced Home IP), 5680IT(Child Car",,,,,,,,,
1699,chapin_dfss_providers_2011_070212.csv,ERIE NEIGHBORHOOD HOUSE FCCH-SERVIA GALVA SITE,2008 W SUPERIOR ,60622,4322213,,,,,,,ERIE NEIGHBORHOOD HOUSE,WEST TOWN,,,,,Cynthia Suarez,No,No,No,"5683IT(Child Care Home IT), 5683PS(Child Care Home PS), 5683",,,,,,,,,
1700,chapin_dfss_providers_2011_070212.csv,ERIE NEIGHBORHOOD HOUSE FCCH-SILVERIA CRUZ SITE,1656 N SPRINGFIELD ,60647,4322213,,,,,,,ERIE NEIGHBORHOOD HOUSE,HUMBOLDT PARK,,,,,Cythnia Suarez,No,Yes,No,"6109IP(EHS Collaboration Enhanced Home IP), 5681IT(Child Car",,,,,,,,,
1701,chapin_dfss_providers_2011_070212.csv,ERIE NEIGHBORHOOD HOUSE FCCH-TANIA PEREZ,4502 N CHRISTIANA AVE ,60625,5041813,,,,,,,ERIE NEIGHBORHOOD HOUSE,ALBANY PARK,,,,,Nancy Vazquez,No,No,No,"6133IP(EHS Collaboration Enhanced Home IP), 6134IT(Child Car",,,,,,,,,
1702,chapin_dfss_providers_2011_070212.csv,FIRMAN COMMUNITY SERVICES FIRMAN COMMUNITY SERVICES EARLY BEGINNINGS,4705 S STATE ,60609,,,,,,,,FIRMAN COMMUNITY SERVICES,GRAND BOULEVARD,,,,,,No,No,No,,,,,,,,,,
1703,chapin_dfss_providers_2011_070212.csv,FIRMAN COMMUNITY SERVICES FIRMAN HOUSE EAST,4910 S KING ,60615,3733400,,,,,,,FIRMAN COMMUNITY SERVICES,GRAND BOULEVARD,,,,,Ms. Carmolita Curry,Yes,No,No,"7077PS(HS Collaboration with Childcare & PreK), 4144SA(Schoo",,,,,,,,,
1704,chapin_dfss_providers_2011_070212.csv,FIRMAN COMMUNITY SERVICES FIRMAN HOUSE SOUTH,5401 S WENTWORTH AVE ,60609,3733400,,,,,,,FIRMAN COMMUNITY SERVICES,FULLER PARK,,,,,Donna Skinner-Echols,No,No,No,"4394IT(Child Care IT Center), 4394PS(Child Care PS Center &",,,,,,,,,
1705,chapin_dfss_providers_2011_070212.csv,FIRMAN COMMUNITY SERVICES FIRMAN HOUSE WEST,37 W 47TH ST ,60609,3733400,,,,,,,FIRMAN COMMUNITY SERVICES,GRAND BOULEVARD,,,,,Ms. Donna  Skinner-Echols,Yes,No,No,"7076PS(HS Collaboration with Childcare & PreK), 2759SA(Schoo",,,,,,,,,
1706,chapin_dfss_providers_2011_070212.csv,FIRMAN COMMUNITY SERVICES FIRMAN WEST II SA 4644 S. DEARBORN,4644 S DEARBORN ,60609,3733400,,,,,,,FIRMAN COMMUNITY SERVICES,GRAND BOULEVARD,,,,,LaTasha Gentry,No,No,Yes,2760SA(School Age (SA)),,,,,,,,,
1707,chapin_dfss_providers_2011_070212.csv,FIRST CHURCH OF LOVE AND FAITH FIRST CHURCH OF LOVE AND FAITH,2140 W 79TH ST ,60620,8739155,,,,,,,FIRST CHURCH OF LOVE AND FAITH,AUBURN GRESHAM,,,,,Connie Guyton,Yes,No,No,,,,,,,,,,
1708,chapin_dfss_providers_2011_070212.csv,FIRST CHURCH OF LOVE AND FAITH FIRST CHURCH OF LOVE AND FAITH#2,2141 WEST 79TH STREET ,60620,2246800,,,,,,,FIRST CHURCH OF LOVE AND FAITH,AUBURN GRESHAM,,,,,CONNIIE GUYTON,Yes,No,No,3258PS(HS Collaboration with Childcare),,,,,,,,,
1709,chapin_dfss_providers_2011_070212.csv,FSS BLUE NORTH,1615 W CHICAGO AVENUE ST ,60622,7432084,,,,,,,FSS,WEST TOWN,,,,,,No,No,No,CYSPS(Child Care IT Center),,,,,,,,,
1710,chapin_dfss_providers_2011_070212.csv,FSS RED SOUTH,1615 W CHICAGO ,60622,,,,,,,,FSS,WEST TOWN,,,,,Mr. Walters,No,No,No,CYSPS(Child Care IT Center),,,,,,,,,
1711,chapin_dfss_providers_2011_070212.csv,GADS HILL CENTER FCCH-AMELIA VALENCIA SITE,3021 W 53RD ST ,60632,2511196,,,,,,,GADS HILL CENTER,GAGE PARK,,,,,Celina Orozco,No,Yes,No,"5708IP(EHS Collaboration Enhanced Home IP), 5714IT(Child Car",,,,,,,,,
1712,chapin_dfss_providers_2011_070212.csv,GADS HILL CENTER FCCH-EDITH ORTEGA SITE,3737 W 51ST ,60632,2511196,,,,,,,GADS HILL CENTER,WEST ELSDON,,,,,Celina Orozco,No,Yes,No,"5705IP(EHS Collaboration Enhanced Home IP), 5711IT(Child Car",,,,,,,,,
1713,chapin_dfss_providers_2011_070212.csv,GADS HILL CENTER FCCH-LUZ OROZCO SITE,4546 W 67TH ST ,60632,2511196,,,,,,,GADS HILL CENTER,WEST LAWN,,,,,Celina Orozco,No,Yes,No,"5704IP(EHS Collaboration Enhanced Home IP), 5710IT(Child Car",,,,,,,,,
1714,chapin_dfss_providers_2011_070212.csv,GADS HILL CENTER FCCH-MAGDALENA ORTEGA SITE,2318 S HOYNE ,60608,2511196,,,,,,,GADS HILL CENTER,LOWER WEST SIDE,,,,,Celina Orozco,No,Yes,No,"5706IP(EHS Collaboration Enhanced Home IP), 5706IT(EHS Enhan",,,,,,,,,
1715,chapin_dfss_providers_2011_070212.csv,GADS HILL CENTER FCCH-MARIA GONZALEZ,5753 S MOZART AVE ,60629,4714975,,,,,,,GADS HILL CENTER,GAGE PARK,,,,,,No,Yes,No,"5979IP(EHS Collaboration Enhanced Home IP), 5979IT(EHS Enhan",,,,,,,,,
1716,chapin_dfss_providers_2011_070212.csv,GADS HILL CENTER FCCH-MARIA PADRON,3754 W 55TH ST ,60632,8388760,,,,,,,GADS HILL CENTER,WEST ELSDON,,,,,,No,Yes,No,"5980IP(EHS Collaboration Enhanced Home IP), 5980IT(EHS Enhan",,,,,,,,,
1717,chapin_dfss_providers_2011_070212.csv,GADS HILL CENTER FCCH-SARA ORTEGA SITE,6110 S MOZART ,60629,2511196,,,,,,,GADS HILL CENTER,CHICAGO LAWN,,,,,Celina Orozco,No,No,No,"5707IP(EHS Collaboration Enhanced Home IP), 5713IT(Child Car",,,,,,,,,
1718,chapin_dfss_providers_2011_070212.csv,GADS HILL CENTER GH CULLERTON LOCATION,1919 W CULLERTON ,60608,,,,,,,,GADS HILL CENTER,LOWER WEST SIDE,,,,,Mr. Montes de Oca,No,Yes,Yes,2651SA(School Age (SA)),,,,,,,,,
1719,chapin_dfss_providers_2011_070212.csv,GADS HILL CENTER GH SINAI COMMUNITY OGDEN,2653 W OGDEN ,60608,5211196,,,,,,,GADS HILL CENTER,NORTH LAWNDALE,,,,,Rick Baldwin,Yes,No,Yes,4289SA(School Age (SA)),,,,,,,,,
1720,chapin_dfss_providers_2011_070212.csv,GADS HILL CENTER HUNT'S EARLY CHILDHOOD EDUCATIONAL ACADEMY,2701 W 79TH ST ,60652,8638260,,,,,,,GADS HILL CENTER,ASHBURN,,,,,Sallie Hunt,Yes,No,No,,,,,,,,,,
1721,chapin_dfss_providers_2011_070212.csv,GADS HILL CENTER KOVE LEARNING ACADEMY,3137 W 71ST ST ,60629,4763083,,,,,,,GADS HILL CENTER,CHICAGO LAWN,,,,,Olivia Hargon,Yes,No,No,,,,,,,,,,
1722,chapin_dfss_providers_2011_070212.csv,GADS HILL CENTER M & E DAYCARE - 79TH STREET DAY CARE,3728 W 79TH ST ,60652,5857979,,,,,,,GADS HILL CENTER,ASHBURN,,,,,Lisa Pearson,Yes,No,No,,,,,,,,,,
1723,chapin_dfss_providers_2011_070212.csv,HAYMARKET CENTER HAYMARKET CENTER,120 N SANGAMON ,60607,2267984,,,,,,,HAYMARKET CENTER,NEAR WEST SIDE,,,,,Bakahia Madison,No,Yes,No,,,,,,,,,,
1724,chapin_dfss_providers_2011_070212.csv,HAYMARKET CENTER WHOLLY INNOCENCE DAY CARE CENTER,34 N SANGAMON ,60607,2267984,,,,,,,HAYMARKET CENTER,NEAR WEST SIDE,,,,,Bakahia Madison,No,No,No,"4343IT(Child Care IT Center), 4343PS(Child Care PS Center),",,,,,,,,,
1725,chapin_dfss_providers_2011_070212.csv,HEALING TEMPLE FCCH-EARNESTINE MOORE,4941 W CHICAGO AVE ,60651,2876964,,,,,,,HEALING TEMPLE,AUSTIN,,,,,,No,Yes,No,"5981IP(EHS Collaboration Enhanced Home IP), 5982IT(Child Car",,,,,,,,,
1726,chapin_dfss_providers_2011_070212.csv,HEALING TEMPLE FCCH-GLENNER MITCHELL,5412 W POTOMAC AVE ,60651,3784974,,,,,,,HEALING TEMPLE,AUSTIN,,,,,,No,Yes,No,"5608IP(EHS Collaboration Enhanced Home IP), 5608IT(EHS Enhan",,,,,,,,,
1727,chapin_dfss_providers_2011_070212.csv,HEALING TEMPLE FCCH-MARY MURPHY,5418 W JACKSON ,60644,2876994,,,,,,,HEALING TEMPLE,AUSTIN,,,,,Lucille Brown,No,Yes,No,"5717IP(EHS Collaboration Enhanced Home IP), 5717IT(EHS Enhan",,,,,,,,,
1728,chapin_dfss_providers_2011_070212.csv,HEALING TEMPLE FCCH-ROSIE CRAWFORD,1114 N LARAMIE ,60651,2876964,,,,,,,HEALING TEMPLE,AUSTIN,,,,,Lucille Brown,No,Yes,No,"5715IP(EHS Collaboration Enhanced Home IP), 5715IT(EHS Enhan",,,,,,,,,
1729,chapin_dfss_providers_2011_070212.csv,HEALING TEMPLE HEALING TEMPLE,4941 W CHICAGO ,60651,2876964,,,,,,,HEALING TEMPLE,AUSTIN,,,,,Carole  Smoot,Yes,No,No,,,,,,,,,,
1730,chapin_dfss_providers_2011_070212.csv,HEKTOEN INSTITUTE EARLY HEAD START PROGRAM AT STROGER HOSPITAL,1900 W POLK ,60612,8646560,,,,,,,HEKTOEN INSTITUTE,NEAR WEST SIDE,,,,,Grace Ortiz,No,Yes,No,,,,,,,,,,
1731,chapin_dfss_providers_2011_070212.csv,HENRY BOOTH HOUSE ALL ABOUT KIDS LEARNING ACADEMY,514 E 75TH ST ,60619,8922800,,,,,,,HENRY BOOTH HOUSE,GREATER GRAND CROSSING,,,,,Tess McKenzie,Yes,No,No,,,,,,,,,,
1732,chapin_dfss_providers_2011_070212.csv,HENRY BOOTH HOUSE ALLISON'S,34 E 115TH STREET ,60628,8404502,,,,,,,HENRY BOOTH HOUSE,ROSELAND,,,,,Allison  Perkins,Yes,No,No,,,,,,,,,,
1733,chapin_dfss_providers_2011_070212.csv,HENRY BOOTH HOUSE ALLISON'S INFANT TODDLER,5522 S RACINE ,60636,4363193,,,,,,,HENRY BOOTH HOUSE,WEST ENGLEWOOD,,,,,LaParish Woody,Yes,No,No,,,,,,,,,,
1734,chapin_dfss_providers_2011_070212.csv,HENRY BOOTH HOUSE ANGEL WINGS,5365 W NORTH ,60639,7450262,,,,,,,HENRY BOOTH HOUSE,AUSTIN,,,,,Lisa Collins,Yes,No,No,,,,,,,,,,
1735,chapin_dfss_providers_2011_070212.csv,HENRY BOOTH HOUSE BRITE NEW MINDS,112 E 51ST STREET ,60615,,,,,,,,HENRY BOOTH HOUSE,GRAND BOULEVARD,,,,,,Yes,No,No,,,,,,,,,,
1736,chapin_dfss_providers_2011_070212.csv,HENRY BOOTH HOUSE BUNNYLAND LAND  DAY CARE,545 W 119TH STREET ,60628,5685200,,,,,,,HENRY BOOTH HOUSE,WEST PULLMAN,,,,,Ms.  Boykin,Yes,No,No,,,,,,,,,,
1737,chapin_dfss_providers_2011_070212.csv,HENRY BOOTH HOUSE COLOR FOR TOTS,2550 E 73RD ST ,60649,3638687,,,,,,,HENRY BOOTH HOUSE,SOUTH SHORE,,,,,Cassandra Williams,Yes,No,No,,,,,,,,,,
1738,chapin_dfss_providers_2011_070212.csv,HENRY BOOTH HOUSE GINA'S UNBELIEVABLE,7239 S DOBSON ,60619,3242010,,,,,,,HENRY BOOTH HOUSE,GREATER GRAND CROSSING,,,,,Gina Thomas,Yes,No,No,,,,,,,,,,
1739,chapin_dfss_providers_2011_070212.csv,HENRY BOOTH HOUSE GRANNY'S DAY CARE CENTER,645 W 127TH STREET ,60628,2644800,,,,,,,HENRY BOOTH HOUSE,WEST PULLMAN,,,,,Ms. Priscilla Bolling,Yes,No,No,,,,,,,,,,
1740,chapin_dfss_providers_2011_070212.csv,HENRY BOOTH HOUSE HEGEWISCH,2725 E 130TH STREET ,60633,,,,,,,,HENRY BOOTH HOUSE,HEGEWISCH,,,,,,Yes,No,Yes,"4358IT(Child Care IT Center), 4358PS(Child Care PS Center),",,,,,,,,,
1741,chapin_dfss_providers_2011_070212.csv,HENRY BOOTH HOUSE HIPPITY HOP TINY TOTS,11223 S HALSTED ST ,60628,7853340,,,,,,,HENRY BOOTH HOUSE,ROSELAND,,,,,Ms. Tuggle,Yes,No,No,,,,,,,,,,
1742,chapin_dfss_providers_2011_070212.csv,"HENRY BOOTH HOUSE ITSY BITSY PEOPLE PALACE, INC",7419 S COTTAGE GROVE AVE ,60619,8467396,,,,,,,HENRY BOOTH HOUSE,GREATER GRAND CROSSING,,,,,Ms. Whiting,Yes,No,No,,,,,,,,,,
1743,chapin_dfss_providers_2011_070212.csv,HENRY BOOTH HOUSE JELLY BEAN LEARINING CENTER-8501 S ASHLAND,8501 S ASHLAND ,60620,2395437,,,,,,,HENRY BOOTH HOUSE,AUBURN GRESHAM,,,,,Ms. Donna Taylor,Yes,No,No,,,,,,,,,,
1744,chapin_dfss_providers_2011_070212.csv,HENRY BOOTH HOUSE JELLY BEAN-358-370 E 71ST,358 370 E 71ST ,60636,8738888,,,,,,,HENRY BOOTH HOUSE,GREATER GRAND CROSSING,,,,,Donna Taylor,Yes,No,No,,,,,,,,,,
1745,chapin_dfss_providers_2011_070212.csv,HENRY BOOTH HOUSE JONES ACADEMY,4344 S WENTWORTH AVE ,60609,5363757,,,,,,,HENRY BOOTH HOUSE,FULLER PARK,,,,,Felicia Jones,Yes,No,No,,,,,,,,,,
1746,chapin_dfss_providers_2011_070212.csv,HENRY BOOTH HOUSE KIDS PLACE II,1318 W 95TH STREET ,60643,4456500,,,,,,,HENRY BOOTH HOUSE,WASHINGTON HEIGHTS,,,,,Ms. Porter,Yes,No,No,,,,,,,,,,
1747,chapin_dfss_providers_2011_070212.csv,HENRY BOOTH HOUSE KIDS R FIRST 1155 W 81ST,1155 W 81ST STREET ,60620,7838080,,,,,,,HENRY BOOTH HOUSE,AUBURN GRESHAM,,,,,Wilborn,Yes,No,No,,,,,,,,,,
1748,chapin_dfss_providers_2011_070212.csv,HENRY BOOTH HOUSE KIDS R FIRST 7838 S HALSTED,7838 S HALSTED ,60620,4889443,,,,,,,HENRY BOOTH HOUSE,AUBURN GRESHAM,,,,,Ms.  Jones,Yes,No,No,,,,,,,,,,
1749,chapin_dfss_providers_2011_070212.csv,HENRY BOOTH HOUSE LAKEVIEW DEVELOPMENT CENTER,1531 W LAWRENCE ,60640,,,,,,,,HENRY BOOTH HOUSE,UPTOWN,,,,,,Yes,No,No,,,,,,,,,,
1750,chapin_dfss_providers_2011_070212.csv,HENRY BOOTH HOUSE LEARNING TREE,8128 S KEDZIE ,60652,7788802,,,,,,,HENRY BOOTH HOUSE,ASHBURN,,,,,Ms.  Vaughn,No,No,No,,,,,,,,,,
1751,chapin_dfss_providers_2011_070212.csv,HENRY BOOTH HOUSE LITTLE ANGELS FAMILY DAYCARE,6701 S EMERALD AVE ,60621,4888777,,,,,,,HENRY BOOTH HOUSE,ENGLEWOOD,,,,,NaShone Greer,Yes,No,No,,,,,,,,,,
1752,chapin_dfss_providers_2011_070212.csv,HENRY BOOTH HOUSE LITTLE FOLKS DAY CARE,2527 E 73RD STREET ,60649,,,,,,,,HENRY BOOTH HOUSE,SOUTH SHORE,,,,,,Yes,No,No,,,,,,,,,,
1753,chapin_dfss_providers_2011_070212.csv,HENRY BOOTH HOUSE LITTLE HANDS & FEET,7801 S WOLCOTT ,60620,9948561,,,,,,,HENRY BOOTH HOUSE,AUBURN GRESHAM,,,,,Ms.  Doyle,Yes,No,No,,,,,,,,,,
1754,chapin_dfss_providers_2011_070212.csv,HENRY BOOTH HOUSE LITTLE HANDS AND FEET II (87TH),1414 W 87TH STREET ,60620,2392322,,,,,,,HENRY BOOTH HOUSE,AUBURN GRESHAM,,,,,Ms. Jackson,Yes,No,No,,,,,,,,,,
1755,chapin_dfss_providers_2011_070212.csv,HENRY BOOTH HOUSE LITTLE LEADERS OF TOMORROW I - MAYFIELD,301 N MAYFIELD AVE ,60644,3788302,,,,,,,HENRY BOOTH HOUSE,AUSTIN,,,,,Ms. Navy,Yes,No,No,,,,,,,,,,
1756,chapin_dfss_providers_2011_070212.csv,HENRY BOOTH HOUSE LIVING WITNESS,4259 N LARAMIE ,60641,,,,,,,,HENRY BOOTH HOUSE,PORTAGE PARK,,,,,,Yes,No,No,,,,,,,,,,
1757,chapin_dfss_providers_2011_070212.csv,HENRY BOOTH HOUSE LOOP,2001 S MICHIGAN ,60616,2258828,,,,,,,HENRY BOOTH HOUSE,NEAR SOUTH SIDE,,,,,Ms. Gregg,Yes,No,No,,,,,,,,,,
1758,chapin_dfss_providers_2011_070212.csv,HENRY BOOTH HOUSE LOVE N LEARN ACADEMY,723 725 E 75TH STREET ,60619,7230338,,,,,,,HENRY BOOTH HOUSE,GREATER GRAND CROSSING,,,,,Ms. Blanton & Ms. Johnson,Yes,No,No,,,,,,,,,,
1759,chapin_dfss_providers_2011_070212.csv,HENRY BOOTH HOUSE NEAR SOUTH,2929 S WABASH ,60616,7910424,,,,,,,HENRY BOOTH HOUSE,DOUGLAS,,,,,Ms. Newsome,Yes,No,No,7013PS(HS Collaboration with Childcare),,,,,,,,,
1760,chapin_dfss_providers_2011_070212.csv,HENRY BOOTH HOUSE NEW PISGAH,8130 S RACINE ,60620,8735392,,,,,,,HENRY BOOTH HOUSE,AUBURN GRESHAM,,,,,Mr. S. Smith,Yes,No,No,,,,,,,,,,
1761,chapin_dfss_providers_2011_070212.csv,HENRY BOOTH HOUSE NICO'S,1855 W 95TH STREET ,60643,2380117,,,,,,,HENRY BOOTH HOUSE,BEVERLY,,,,,Ms.  Watts,No,No,No,,,,,,,,,,
1762,chapin_dfss_providers_2011_070212.csv,HENRY BOOTH HOUSE NORTH KENWOOD DAY CARE CENTER,857 E PERSHING ,60653,,,,,,,,HENRY BOOTH HOUSE,OAKLAND,,,,,,Yes,No,No,,,,,,,,,,
1763,chapin_dfss_providers_2011_070212.csv,HENRY BOOTH HOUSE PATTI CAKE,939 W 87TH STREET ,60620,8749460,,,,,,,HENRY BOOTH HOUSE,AUBURN GRESHAM,,,,,Ms. Harris,Yes,No,No,,,,,,,,,,
1764,chapin_dfss_providers_2011_070212.csv,HENRY BOOTH HOUSE PINK'S CHILD CARE ACADEMY,8236 S KEDZIE ,60652,8637465,,,,,,,HENRY BOOTH HOUSE,ASHBURN,,,,,Ms.  Jones,Yes,No,No,,,,,,,,,,
1765,chapin_dfss_providers_2011_070212.csv,HENRY BOOTH HOUSE PRECIOUS LITTLE ONES,5327 S MICHIGAN AVE ,60615,,,,,,,,HENRY BOOTH HOUSE,WASHINGTON PARK,,,,,,Yes,No,No,,,,,,,,,,
1766,chapin_dfss_providers_2011_070212.csv,HENRY BOOTH HOUSE PRODIGY CHILD LEARNING CENTER,1921 E 79TH STREET ,60649,2213100,,,,,,,HENRY BOOTH HOUSE,SOUTH CHICAGO,,,,,Shonzette Cheeks,Yes,No,No,,,,,,,,,,
1767,chapin_dfss_providers_2011_070212.csv,HENRY BOOTH HOUSE THE WORLD IS YOURS,8026 S COTTAGE GROVE AVE ,60619,,,,,,,,HENRY BOOTH HOUSE,CHATHAM,,,,,,Yes,No,No,,,,,,,,,,
1768,chapin_dfss_providers_2011_070212.csv,HENRY BOOTH HOUSE WEE CARE NURSERY,1845 E 79TH STREET ,60649,2214442,,,,,,,HENRY BOOTH HOUSE,SOUTH CHICAGO,,,,,Ms. Williams-Morgan,Yes,No,No,,,,,,,,,,
1769,chapin_dfss_providers_2011_070212.csv,HENRY BOOTH HOUSE WEE WEE CENTER FOR CREATIVE,2434 W 71ST STREET ,60629,4710869,,,,,,,HENRY BOOTH HOUSE,CHICAGO LAWN,,,,,Ms. Duckery,Yes,No,No,,,,,,,,,,
1770,chapin_dfss_providers_2011_070212.csv,HENRY BOOTH HOUSE WEST AUSTIN,4920 W MADISON ,60644,,,,,,,,HENRY BOOTH HOUSE,AUSTIN,,,,,,Yes,No,No,,,,,,,,,,
1771,chapin_dfss_providers_2011_070212.csv,HENRY BOOTH HOUSE WHIZ KIDS NURSERY 518 W 103 RD ST,518 W 103RD STREET ,60628,2339445,,,,,,,HENRY BOOTH HOUSE,WASHINGTON HEIGHTS,,,,,Ms. Craft,Yes,No,No,,,,,,,,,,
1772,chapin_dfss_providers_2011_070212.csv,HENRY BOOTH HOUSE YOUNG ACHIEVERS ACADEMY,520 E 79TH STREET ,60619,,,,,,,,HENRY BOOTH HOUSE,GREATER GRAND CROSSING,,,,,,Yes,No,No,,,,,,,,,,
1773,chapin_dfss_providers_2011_070212.csv,HOME OF LIFE COMMUNITY DEV. CORP. HLCDC DEV. II,4650 W MADISON ,60644,6268655,,,,,,,HOME OF LIFE COMMUNITY DEV. CORP.,AUSTIN,,,,,Dorietta Sceanior,Yes,No,Yes,"2114IT(Child Care IT Center), 7199PS(HS Collaboration with C",,,,,,,,,
1774,chapin_dfss_providers_2011_070212.csv,HOME OF LIFE COMMUNITY DEV. CORP. HOME OF LIFE JUST FOR YOU,4647 W WASHINGTON ,60644,6268655,,,,,,,HOME OF LIFE COMMUNITY DEV. CORP.,AUSTIN,,,,,Nena Porter Cooper,Yes,No,No,"2114PS(Child Care PS Center), 7199PS(HS Collaboration with C",,,,,,,,,
1775,chapin_dfss_providers_2011_070212.csv,HOWARD AREA COMMUNITY CENTER HOWARD AREA,7510 N ASHLAND ,60626,2626622,,,,,,,HOWARD AREA COMMUNITY CENTER,ROGERS PARK,,,,,Stephania Koliarakis,Yes,No,Yes,"7071PS(HS Collaboration with Childcare & PreK), 2765PS(Child",,,,,,,,,
1776,chapin_dfss_providers_2011_070212.csv,HULL HOUSE ASSOCIATION BOTTLES TO BOOKS LEARNING CENTER,6014 S RACINE ,60621,4345772,,,,,,,HULL HOUSE ASSOCIATION,WEST ENGLEWOOD,,,,,Tamika Daniels,Yes,No,No,,,,,,,,,,
1777,chapin_dfss_providers_2011_070212.csv,HULL HOUSE ASSOCIATION FCCH-BARBARA DAVIS,1656 N LOTUS ST ,60639,2355342,,,,,,,HULL HOUSE ASSOCIATION,AUSTIN,,,,,Etisha Wofford,No,No,No,"5734IP(EHS Collaboration Enhanced Home IP), 5735IT(Child Car",,,,,,,,,
1778,chapin_dfss_providers_2011_070212.csv,HULL HOUSE ASSOCIATION FCCH-DIANIRA ULIN,1912 N PULASKI AVE ,60639,2355342,,,,,,,HULL HOUSE ASSOCIATION,HERMOSA,,,,,Etisha Wofford,No,Yes,No,"5937IP(EHS Collaboration Enhanced Home IP), 5746IT(Child Car",,,,,,,,,
1779,chapin_dfss_providers_2011_070212.csv,HULL HOUSE ASSOCIATION FCCH-EARLINE HAGGARD,3347 W CARROLL AVE ,60624,8267766,,,,,,,HULL HOUSE ASSOCIATION,EAST GARFIELD PARK,,,,,,No,Yes,No,"6128IP(EHS Collaboration Enhanced Home IP), 6129IT(Child Car",,,,,,,,,
1780,chapin_dfss_providers_2011_070212.csv,HULL HOUSE ASSOCIATION FCCH-EDITH COLLINS,5538 W CORTLAND AVE ,60639,2355342,,,,,,,HULL HOUSE ASSOCIATION,AUSTIN,,,,,Etisha Wofford,No,No,No,"5731IP(EHS Collaboration Enhanced Home IP), 5732IT(Child Car",,,,,,,,,
1781,chapin_dfss_providers_2011_070212.csv,HULL HOUSE ASSOCIATION FCCH-EMILY JENKINS,1743 N LATROBE ST ,60639,2355342,,,,,,,HULL HOUSE ASSOCIATION,AUSTIN,,,,,Etisha Wofford,No,Yes,No,"5739IP(EHS Collaboration Enhanced Home IP), 5741IT(Child Car",,,,,,,,,
1782,chapin_dfss_providers_2011_070212.csv,HULL HOUSE ASSOCIATION FCCH-MONICA PIERCE,1644 S AVERS ST ,60623,2355342,,,,,,,HULL HOUSE ASSOCIATION,NORTH LAWNDALE,,,,,Etisha Wofford,No,Yes,No,"5743IP(EHS Collaboration Enhanced Home IP), 5942IT(Child Car",,,,,,,,,
1783,chapin_dfss_providers_2011_070212.csv,HULL HOUSE ASSOCIATION FCCH-ROBIN JAMES,4537 S LECLAIRE ,60639,2355342,,,,,,,HULL HOUSE ASSOCIATION,GARFIELD RIDGE,,,,,Etisha Wofford,No,No,No,,,,,,,,,,
1784,chapin_dfss_providers_2011_070212.csv,HULL HOUSE ASSOCIATION FCCH-SHANETTA HOWARD,5255 W JACKSON ,60644,3785120,,,,,,,HULL HOUSE ASSOCIATION,AUSTIN,,,,,,No,No,No,"5912IP(EHS Collaboration Enhanced Home IP), 5913IT(Child Car",,,,,,,,,
1785,chapin_dfss_providers_2011_070212.csv,HULL HOUSE ASSOCIATION FCCH-SHARON TRULL-YUSSESS,4222 W WILCOX ST ,60624,7228308,,,,,,,HULL HOUSE ASSOCIATION,WEST GARFIELD PARK,,,,,,No,Yes,No,"5879IP(EHS Collaboration Enhanced Home IP), 5880IT(Child Car",,,,,,,,,
1786,chapin_dfss_providers_2011_070212.csv,HULL HOUSE ASSOCIATION FCCH-SHAUNTA COLLINS,1626 N MASON ST ,60623,2355342,,,,,,,HULL HOUSE ASSOCIATION,AUSTIN,,,,,Etisha Wofford,No,No,No,,,,,,,,,,
1787,chapin_dfss_providers_2011_070212.csv,HULL HOUSE ASSOCIATION FCCH-SHELIA LANGHAM,11312 S NORMAL ST ,60628,2355342,,,,,,,HULL HOUSE ASSOCIATION,ROSELAND,,,,,Etisha Wofford,No,Yes,No,"5740IP(EHS Collaboration Enhanced Home IP), 5742IT(Child Car",,,,,,,,,
1788,chapin_dfss_providers_2011_070212.csv,HULL HOUSE ASSOCIATION FCCH-SHERISSE HOLMES,4119 W 16TH ST ,60623,2355342,,,,,,,HULL HOUSE ASSOCIATION,NORTH LAWNDALE,,,,,Etisha Wofford,No,Yes,No,"5737IP(EHS Collaboration Enhanced Home IP), 5945IT(Child Car",,,,,,,,,
1789,chapin_dfss_providers_2011_070212.csv,HULL HOUSE ASSOCIATION FCCH-TAKELYA ELLINGTON,3421 W 12TH ,60623,5424196,,,,,,,HULL HOUSE ASSOCIATION,NORTH LAWNDALE,,,,,,No,Yes,No,"5882IP(EHS Collaboration Enhanced Home IP), 5883IT(Child Car",,,,,,,,,
1790,chapin_dfss_providers_2011_070212.csv,HULL HOUSE ASSOCIATION FCCH-TAYNA AYENA,10836 S NORMAL AVE ,60628,8218491,,,,,,,HULL HOUSE ASSOCIATION,ROSELAND,,,,,,No,Yes,No,"6130IP(EHS Collaboration Enhanced Home IP), 6131IT(Child Car",,,,,,,,,
1791,chapin_dfss_providers_2011_070212.csv,HULL HOUSE ASSOCIATION FCCH-VERNELL KENNEDY,11515 S THROOP ST ,60643,6609953,,,,,,,HULL HOUSE ASSOCIATION,WEST PULLMAN,,,,,,No,No,Yes,"6132IT(Child Care Home IT), 6132PS(Child Care Home PS), 6132",,,,,,,,,
1792,chapin_dfss_providers_2011_070212.csv,HULL HOUSE ASSOCIATION FCCH-WANDA FIELDER,21 E 101ST PLACE ,60628,5686610,,,,,,,HULL HOUSE ASSOCIATION,ROSELAND,,,,,,No,No,No,"5961PS(HS Collaboration with Childcare Homes), 5961IP(EHS Co",,,,,,,,,
1793,chapin_dfss_providers_2011_070212.csv,HULL HOUSE ASSOCIATION KINGS KIDDIE KINGDOM,815 W 74TH ST ,60621,,,,,,,,HULL HOUSE ASSOCIATION,ENGLEWOOD,,,,,Camille King,Yes,No,No,,,,,,,,,,
1794,chapin_dfss_providers_2011_070212.csv,HULL HOUSE ASSOCIATION LECLAIRE-RYDER,4410 S LAPORTE ,60638,7675170,,,,,,,HULL HOUSE ASSOCIATION,GARFIELD RIDGE,,,,,Shirley Mullin,Yes,No,No,7072PS(HS Collaboration with Childcare),,,,,,,,,
1795,chapin_dfss_providers_2011_070212.csv,HULL HOUSE ASSOCIATION LINCOLN SQUARE,4754 N LEAVITT ,60625,8789651,,,,,,,HULL HOUSE ASSOCIATION,LINCOLN SQUARE,,,,,Raina  Sajous,Yes,No,No,"7129PS(HS Collaboration with Childcare & PreK), 2709SA(Schoo",,,,,,,,,
1796,chapin_dfss_providers_2011_070212.csv,HULL HOUSE ASSOCIATION ORR INFANT TODDLER PROGRAM,730 N PULASKI RD ,60624,8261090,,,,,,,HULL HOUSE ASSOCIATION,HUMBOLDT PARK,,,,,,No,Yes,No,,,,,,,,,,
1797,chapin_dfss_providers_2011_070212.csv,HULL HOUSE ASSOCIATION PARKWAY COMMUNITY CENTER,500 E 67TH STREET ,60637,4931306,,,,,,,HULL HOUSE ASSOCIATION,WOODLAWN,,,,,Carmen Knight,Yes,No,No,"3263PS(HS Collaboration with Childcare & PreK), 2637SA(Schoo",,,,,,,,,
1798,chapin_dfss_providers_2011_070212.csv,HULL HOUSE ASSOCIATION UPTOWN - EAST,1020 W BRYN MAWR ,60660,7695753,,,,,,,HULL HOUSE ASSOCIATION,EDGEWATER,,,,,Martha Abarca,Yes,No,No,7027PS(HS Collaboration with Childcare & PreK),,,,,,,,,
1799,chapin_dfss_providers_2011_070212.csv,HULL HOUSE ASSOCIATION UPTOWN COMMUNITY CENTER WEST,4520 N BEACON ,60640,5613500,,,,,,,HULL HOUSE ASSOCIATION,UPTOWN,,,,,Patricia Showers,Yes,No,No,"3409PS(HS Collaboration with Childcare & PreK), 2518SA(Schoo",,,,,,,,,
1800,chapin_dfss_providers_2011_070212.csv,KOREAN AMERICAN COMMUNITY SERVICES KOREAN AMERICAN COMMUNITY SERVICES,4300 N CALIFORNIA ,60618,5838281,,,,,,,KOREAN AMERICAN COMMUNITY SERVICES,IRVING PARK,,,,,Hye K. Choi,Yes,No,Yes,"7131PS(HS Collaboration with Childcare & PreK), 2808SA(Schoo",,,,,,,,,
1801,chapin_dfss_providers_2011_070212.csv,LUTHERAN SOCIAL SERVICES OF ILLINOIS ARRA HOME BASED INITIATIVE - ROSELAND CHRISTIAN MINISTRIES,10 W 35TH ST 15TH FLOOR ,60616,9494789,,,,,,,LUTHERAN SOCIAL SERVICES OF ILLINOIS,DOUGLAS,,,,,Sophia Coleman,Yes,No,No,,,,,,,,,,
1802,chapin_dfss_providers_2011_070212.csv,LUTHERAN SOCIAL SERVICES OF ILLINOIS ENGLEWOOD MESSIAH,1910 W 64TH STREET ,60636,4365110,,,,,,,LUTHERAN SOCIAL SERVICES OF ILLINOIS,WEST ENGLEWOOD,,,,,Delphine Whittlesey,Yes,No,No,,,,,,,,,,
1803,chapin_dfss_providers_2011_070212.csv,LUTHERAN SOCIAL SERVICES OF ILLINOIS NORTH AUSTIN HEAD START,1500 N MASON ,60651,2371930,,,,,,,LUTHERAN SOCIAL SERVICES OF ILLINOIS,AUSTIN,,,,,Doris Holden,Yes,No,No,"4115IT(Child Care IT Center), 7015PS(HS Collaboration with C",,,,,,,,,
1804,chapin_dfss_providers_2011_070212.csv,LUTHERAN SOCIAL SERVICES OF ILLINOIS ROGERS PARK,1754 W DEVON ,60660,6354600,,,,,,,LUTHERAN SOCIAL SERVICES OF ILLINOIS,ROGERS PARK,,,,,Deloris McDowell,Yes,No,No,7134PS(HS Collaboration with Childcare & PreK),,,,,,,,,
1805,chapin_dfss_providers_2011_070212.csv,LUTHERAN SOCIAL SERVICES OF ILLINOIS TRINIDAD LUTHERAN,2921 W DIVISION ,60622,6354600,,,,,,,LUTHERAN SOCIAL SERVICES OF ILLINOIS,WEST TOWN,,,,,Emilia Espinal,Yes,No,No,,,,,,,,,,
1806,chapin_dfss_providers_2011_070212.csv,LUTHERAN SOCIAL SERVICES OF ILLINOIS WINTHROP CHILDREN'S CENTER,4848 N WINTHROP ,60640,8783210,,,,,,,LUTHERAN SOCIAL SERVICES OF ILLINOIS,UPTOWN,,,,,,Yes,No,No,"2664IT(Child Care IT Center), 7133PS(HS Collaboration with C",,,,,,,,,
1807,chapin_dfss_providers_2011_070212.csv,MARCY NEWBERRY ASSOCIATION AUSTIN TOWN HALL,5610 W LAKE ,60644,2611505,,,,,,,MARCY NEWBERRY ASSOCIATION,AUSTIN,,,,,Marsha Ballenger,Yes,No,No,"7028PS(HS Collaboration with Childcare & PreK), 4155PS(Child",,,,,,,,,
1808,chapin_dfss_providers_2011_070212.csv,MARCY NEWBERRY ASSOCIATION FCCH-ALICE TWITTY,1054 N KARLOV ST ,60651,2520732,,,,,,,MARCY NEWBERRY ASSOCIATION,HUMBOLDT PARK,,,,,Alice Twitty,No,Yes,No,"5754IP(EHS Collaboration Enhanced Home IP), 5754IT(EHS Enhan",,,,,,,,,
1809,chapin_dfss_providers_2011_070212.csv,MARCY NEWBERRY ASSOCIATION FCCH-DEBRA BAKER,1728 N AUSTIN AVE ,60639,2376009,,,,,,,MARCY NEWBERRY ASSOCIATION,AUSTIN,,,,,Celia  Wills,No,Yes,No,"6117IP(EHS Collaboration Enhanced Home IP), 6120IT(Child Car",,,,,,,,,
1810,chapin_dfss_providers_2011_070212.csv,MARCY NEWBERRY ASSOCIATION FCCH-IDERIA HOWARD,1013 N MONITOR AVE ,60644,2612115,,,,,,,MARCY NEWBERRY ASSOCIATION,AUSTIN,,,,,Celia Wills,No,Yes,No,"6119IP(EHS Collaboration Enhanced Home IP), 6122IT(Child Car",,,,,,,,,
1811,chapin_dfss_providers_2011_070212.csv,MARCY NEWBERRY ASSOCIATION FCCH-JANET THOMAS,1034 N KARLOV ST ,60651,2529401,,,,,,,MARCY NEWBERRY ASSOCIATION,HUMBOLDT PARK,,,,,Janet L. Thomas,No,No,No,"5753IP(EHS Collaboration Enhanced Home IP), 5753IT(EHS Enhan",,,,,,,,,
1812,chapin_dfss_providers_2011_070212.csv,MARCY NEWBERRY ASSOCIATION FCCH-LASHANDA BAYLOR,1051 N MASSASOIT AVE ,60651,8297555,,,,,,,MARCY NEWBERRY ASSOCIATION,AUSTIN,,,,,Celia Wills,No,Yes,No,"6118IP(EHS Collaboration Enhanced Home IP), 6121IT(Child Car",,,,,,,,,
1813,chapin_dfss_providers_2011_070212.csv,MARCY NEWBERRY ASSOCIATION FCCH-MELVIN TURNER,1508 W MONITOR ,60651,,,,,,,,MARCY NEWBERRY ASSOCIATION,AUSTIN,,,,,,No,Yes,No,"5969IP(EHS Collaboration Enhanced Home IP), 5970IT(Child Car",,,,,,,,,
1814,chapin_dfss_providers_2011_070212.csv,MARCY NEWBERRY ASSOCIATION FCCH-NORMA JACKSON,935 N MENARD ,60651,,,,,,,,MARCY NEWBERRY ASSOCIATION,AUSTIN,,,,,Celia Wills,No,Yes,No,"6104IP(EHS Collaboration Enhanced Home IP), 6105IT(Child Car",,,,,,,,,
1815,chapin_dfss_providers_2011_070212.csv,MARCY NEWBERRY ASSOCIATION FCCH-SHARON JAMES,311 N WALLER ,60644,2879737,,,,,,,MARCY NEWBERRY ASSOCIATION,AUSTIN,,,,,Sharon James,No,No,No,"5750IP(EHS Collaboration Enhanced Home IP), 5750IT(EHS Enhan",,,,,,,,,
1816,chapin_dfss_providers_2011_070212.csv,MARCY NEWBERRY ASSOCIATION FOSCO,1312 S RACINE ,60608,7466024,,,,,,,MARCY NEWBERRY ASSOCIATION,NEAR WEST SIDE,,,,,Kimberly Johnson,Yes,Yes,No,"4195IT(Child Care IT Center), 7086PS (HS Collaboration with",,,,,,,,,
1817,chapin_dfss_providers_2011_070212.csv,MARCY NEWBERRY ASSOCIATION KENYATTA'S DAY CARE,2334 E 75TH ST ,60649,,,,,,,,MARCY NEWBERRY ASSOCIATION,SOUTH SHORE,,,,,Brenda Owens,No,No,No,,,,,,,,,,
1818,chapin_dfss_providers_2011_070212.csv,MARCY NEWBERRY ASSOCIATION LEARNING TREE 1,8128 S KEDZIE ,60652,7788802,,,,,,,MARCY NEWBERRY ASSOCIATION,ASHBURN,,,,,Joanne Williams,Yes,No,No,,,,,,,,,,
1819,chapin_dfss_providers_2011_070212.csv,MARCY NEWBERRY ASSOCIATION LEARNING TREE 2,8322 S PULASKI RD ,60652,8843345,,,,,,,MARCY NEWBERRY ASSOCIATION,ASHBURN,,,,,Joanne Williams,Yes,No,No,,,,,,,,,,
1820,chapin_dfss_providers_2011_070212.csv,MARCY NEWBERRY ASSOCIATION MARCY CENTER,1539 S SPRINGFIELD ,60623,7622300,,,,,,,MARCY NEWBERRY ASSOCIATION,NORTH LAWNDALE,,,,,Barbara Tucker,Yes,No,Yes,"2751IT(Child Care IT Center), 7135PS(HS Collaboration with C",,,,,,,,,
1821,chapin_dfss_providers_2011_070212.csv,MARCY NEWBERRY ASSOCIATION NEWBERRY CENTER,1073 W MAXWELL ,60608,8297555,,,,,,,MARCY NEWBERRY ASSOCIATION,NEAR WEST SIDE,,,,,Vernon Lyle,No,No,Yes,2753SA(School Age (SA)),,,,,,,,,
1822,chapin_dfss_providers_2011_070212.csv,MARCY NEWBERRY ASSOCIATION SOUTH HARPER MONTESSORI,8358 S STONY ISLAND AVE ,60617,7340375,,,,,,,MARCY NEWBERRY ASSOCIATION,AVALON PARK,,,,,Georgianna Coachman,No,No,No,,,,,,,,,,
1823,chapin_dfss_providers_2011_070212.csv,MARCY NEWBERRY ASSOCIATION ST. JOHN,5701 W MIDWAY PARK ,60644,3795533,,,,,,,MARCY NEWBERRY ASSOCIATION,AUSTIN,,,,,Willie Mae Cole,Yes,No,No,3149PS(HS Collaboration with Childcare),,,,,,,,,
1824,chapin_dfss_providers_2011_070212.csv,MARY CRANE LEAGUE CHILDREN'S LEARN AND PLAY,6512 S HALSTED ST ,60621,,,,,,,,MARY CRANE LEAGUE,ENGLEWOOD,,,,,,Yes,No,No,,,,,,,,,,
1825,chapin_dfss_providers_2011_070212.csv,MARY CRANE LEAGUE MARY CRANE CENTER (EAST),2974 N CLYBOURN AVE ,60618,3485528,,,,,,,MARY CRANE LEAGUE,NORTH CENTER,,,,,Jennifer Jones,Yes,No,Yes,"4145IT(Child Care IT Center), 4236PS(HS Collaboration with C",,,,,,,,,
1826,chapin_dfss_providers_2011_070212.csv,MARY CRANE LEAGUE MARY CRANE CENTER (LAKE & PULASKI),316 N PULASKI SITE ,60624,2653830,,,,,,,MARY CRANE LEAGUE,WEST GARFIELD PARK,,,,,,Yes,Yes,Yes,"4374IT(Child Care IT Center), 4374PS(Child Care PS Center),",,,,,,,,,
1827,chapin_dfss_providers_2011_070212.csv,MARY CRANE LEAGUE MARY CRANE CENTER (MOLADE CHILD DEV.),1120 N LAMON ,60651,6267760,,,,,,,MARY CRANE LEAGUE,AUSTIN,,,,,,Yes,Yes,Yes,"4372IT(Child Care IT Center), 4372PS(Child Care PS Center),",,,,,,,,,
1828,chapin_dfss_providers_2011_070212.csv,MARY CRANE LEAGUE MARY CRANE CENTER (MORSE),1545 W MORSE ,60626,2621390,,,,,,,MARY CRANE LEAGUE,ROGERS PARK,,,,,Guadalupe Herrera,Yes,No,No,4270PS(HS Collaboration with Childcare & PreK),,,,,,,,,
1829,chapin_dfss_providers_2011_070212.csv,MARY CRANE LEAGUE MARY CRANE CENTER (NORTH),2905 N LEAVITT ,60618,3485528,,,,,,,MARY CRANE LEAGUE,NORTH CENTER,,,,,Lavetter Terry,No,Yes,No,,,,,,,,,,
1830,chapin_dfss_providers_2011_070212.csv,MARY CRANE LEAGUE MARY CRANE CENTER (WEST),2820 N LEAVITT ,60618,3485528,,,,,,,MARY CRANE LEAGUE,NORTH CENTER,,,,,Emily Hamlin,Yes,Yes,No,4237PS(HS Collaboration with Childcare & PreK),,,,,,,,,
1831,chapin_dfss_providers_2011_070212.csv,METROPOLITAN FAMILY SERVICES MIDWAY CHILDREN'S CENTER,3215 W 63RD ST ,60629,8842350,,,,,,,METROPOLITAN FAMILY SERVICES,CHICAGO LAWN,,,,,Guadalupe Valdine,Yes,No,Yes,"4331IT(Child Care IT Center), 3783PS(HS Collaboration with C",,,,,,,,,
1832,chapin_dfss_providers_2011_070212.csv,METROPOLITAN FAMILY SERVICES MIDWAY HEAD START,6422 S KEDZIE ,60629,7374790,,,,,,,METROPOLITAN FAMILY SERVICES,CHICAGO LAWN,,,,,Rhonda Freeman,Yes,No,No,,,,,,,,,,
1833,chapin_dfss_providers_2011_070212.csv,METROPOLITAN FAMILY SERVICES NORTH CHILDREN'S CENTER,3249 N CENTRAL AVE ,60634,,,,,,,,METROPOLITAN FAMILY SERVICES,PORTAGE PARK,,,,,Dawn Delgado,Yes,No,Yes,"4329IT(Child Care IT Center), 4330PS(HS Collaboration with C",,,,,,,,,
1834,chapin_dfss_providers_2011_070212.csv,NORTH AVENUE DAY NURSERY FCCH-AIDA CARDONA,2117 N KEDVALE ,60639,,,,,,,,NORTH AVENUE DAY NURSERY,HERMOSA,,,,,,No,Yes,Yes,"5829IP(EHS Collaboration Enhanced Home IP), 5830IT(Child Car",,,,,,,,,
1835,chapin_dfss_providers_2011_070212.csv,NORTH AVENUE DAY NURSERY FCCH-AMANDA LOPEZ,4433 N HARDING ,60625,,,,,,,,NORTH AVENUE DAY NURSERY,ALBANY PARK,,,,,Sonja Anthony,No,Yes,No,"5932IP(EHS Collaboration Enhanced Home IP), 5933IT(Child Car",,,,,,,,,
1836,chapin_dfss_providers_2011_070212.csv,NORTH AVENUE DAY NURSERY FCCH-BETTY WILLIAMS,1543 N KOLIN ,60651,,,,,,,,NORTH AVENUE DAY NURSERY,HUMBOLDT PARK,,,,,,No,No,No,,,,,,,,,,
1837,chapin_dfss_providers_2011_070212.csv,NORTH AVENUE DAY NURSERY FCCH-CAROLYN PRICE,2020 W JACKSON ,60612,,,,,,,,NORTH AVENUE DAY NURSERY,NEAR WEST SIDE,,,,,,No,No,No,"5833IP(EHS Collaboration Enhanced Home IP), 5834IT(Child Car",,,,,,,,,
1838,chapin_dfss_providers_2011_070212.csv,NORTH AVENUE DAY NURSERY FCCH-CHERYL COOK,5929 W WALTON ,60651,,,,,,,,NORTH AVENUE DAY NURSERY,AUSTIN,,,,,,No,No,No,"5835IT(Child Care Home IT), 5835PS(Child Care Home PS), 5835",,,,,,,,,
1839,chapin_dfss_providers_2011_070212.csv,NORTH AVENUE DAY NURSERY FCCH-DORA LOPEZ,2256 W FOSTER ,60625,7845132,,,,,,,NORTH AVENUE DAY NURSERY,LINCOLN SQUARE,,,,,Sonja Anthony,No,Yes,No,"6127IP(EHS Collaboration Enhanced Home IP), 6136IT(Child Car",,,,,,,,,
1840,chapin_dfss_providers_2011_070212.csv,NORTH AVENUE DAY NURSERY FCCH-EMMA TURNER,1815 W MONROE ,60612,,,,,,,,NORTH AVENUE DAY NURSERY,NEAR WEST SIDE,,,,,,No,Yes,Yes,"5803IP(EHS Collaboration Enhanced Home IP), 5805IT(Child Car",,,,,,,,,
1841,chapin_dfss_providers_2011_070212.csv,NORTH AVENUE DAY NURSERY FCCH-GLADYS LORENZO,2642 N FAIRFIELD ,60647,,,,,,,,NORTH AVENUE DAY NURSERY,LOGAN SQUARE,,,,,,No,No,No,,,,,,,,,,
1842,chapin_dfss_providers_2011_070212.csv,NORTH AVENUE DAY NURSERY FCCH-HILDA PEREZ,4339 W MCLEAN ,60639,,,,,,,,NORTH AVENUE DAY NURSERY,HERMOSA,,,,,,No,No,No,,,,,,,,,,
1843,chapin_dfss_providers_2011_070212.csv,NORTH AVENUE DAY NURSERY FCCH-JOHNNIE VAUGHN,1701 N MAJOR ,60639,8040261,,,,,,,NORTH AVENUE DAY NURSERY,AUSTIN,,,,,,No,No,No,"5916IP(EHS Collaboration Enhanced Home IP), 5916IT(EHS Enhan",,,,,,,,,
1844,chapin_dfss_providers_2011_070212.csv,NORTH AVENUE DAY NURSERY FCCH-LUZ GONZALEZ,1743 N FRANCISCO ,60647,,,,,,,,NORTH AVENUE DAY NURSERY,WEST TOWN,,,,,,No,No,No,"5836IT(Child Care Home IT), 5836PS(Child Care Home PS), 5836",,,,,,,,,
1845,chapin_dfss_providers_2011_070212.csv,NORTH AVENUE DAY NURSERY FCCH-MARIA BERRERA,2443 W FOSTER ,60625,6000846,,,,,,,NORTH AVENUE DAY NURSERY,LINCOLN SQUARE,,,,,Sonja Anthony,No,Yes,No,"6126IP(EHS Collaboration Enhanced Home IP), 6135IT(Child Car",,,,,,,,,
1846,chapin_dfss_providers_2011_070212.csv,NORTH AVENUE DAY NURSERY FCCH-NELLIE AGRON,922 N RIDGEWAY ,60651,7828281,,,,,,,NORTH AVENUE DAY NURSERY,HUMBOLDT PARK,,,,,,No,No,No,"5918IT(Child Care Home IT), 5918PS(Child Care Home PS), 5918",,,,,,,,,
1847,chapin_dfss_providers_2011_070212.csv,NORTH AVENUE DAY NURSERY FCCH-ROBBIE ANTHONY,5916 WEST SUPERIOR ,60644,2974124,,,,,,,NORTH AVENUE DAY NURSERY,AUSTIN,,,,,Sonja Anthony,No,Yes,No,"6124IP(EHS Collaboration Enhanced Home IP), 6125IT(Child Car",,,,,,,,,
1848,chapin_dfss_providers_2011_070212.csv,NORTH AVENUE DAY NURSERY FCCH-SHELONDA HASSELL,5924 W OHIO AVE ,60644,,,,,,,,NORTH AVENUE DAY NURSERY,AUSTIN,,,,,,No,No,No,"5985IP(EHS Collaboration Enhanced Home IP), 5986IT(Child Car",,,,,,,,,
1849,chapin_dfss_providers_2011_070212.csv,NORTH AVENUE DAY NURSERY FCCH-SONYA HARRIS,329 N LONG AVE ,60644,6269894,,,,,,,NORTH AVENUE DAY NURSERY,AUSTIN,,,,,,No,No,No,"5917IP(EHS Collaboration Enhanced Home IP), 5921IT(Child Car",,,,,,,,,
1850,chapin_dfss_providers_2011_070212.csv,NORTH AVENUE DAY NURSERY FCCH-TIFFANY TAYLOR,1135 S SACRAMENTO 1 ,60612,9815376,,,,,,,NORTH AVENUE DAY NURSERY,NORTH LAWNDALE,,,,,Sonja Anthony,No,No,No,,,,,,,,,,
1851,chapin_dfss_providers_2011_070212.csv,NORTH AVENUE DAY NURSERY FCCH-VALERIE MARTIN,2043 W PIERCE ,60622,,,,,,,,NORTH AVENUE DAY NURSERY,WEST TOWN,,,,,,No,Yes,Yes,"5757IP(EHS Collaboration Enhanced Home IP), 5837IT(Child Car",,,,,,,,,
1852,chapin_dfss_providers_2011_070212.csv,NORTH AVENUE DAY NURSERY FCCH-VIOLET JACKSON,208 N MENARD ,60644,8246764,,,,,,,NORTH AVENUE DAY NURSERY,AUSTIN,,,,,,No,No,No,,,,,,,,,,
1853,chapin_dfss_providers_2011_070212.csv,NORTH AVENUE DAY NURSERY FCCH-YONNA BANKS,3907 W FILLMORE ,60624,4919316,,,,,,,NORTH AVENUE DAY NURSERY,NORTH LAWNDALE,,,,,Sonja Anthony,No,No,No,,,,,,,,,,
1854,chapin_dfss_providers_2011_070212.csv,NORTH AVENUE DAY NURSERY NORTH AVENUE DAY NURSERY,2001 W PIERCE ,60622,3424499,,,,,,,NORTH AVENUE DAY NURSERY,WEST TOWN,,,,,Steve Koll,Yes,No,Yes,"3270PS(HS Collaboration with Childcare & PreK), 2742PS(Child",,,,,,,,,
1855,chapin_dfss_providers_2011_070212.csv,NORTHWESTERN UNIVERSITY SETTLEMENT HOUSE NORTHWESTERN UNIVERSITY SETTLEMENT HOUSE,1400 W AUGUSTA ,60622,2787471,,,,,,,NORTHWESTERN UNIVERSITY SETTLEMENT HOUSE,WEST TOWN,,,,,Linda McLaren,Yes,No,No,,,,,,,,,,
1856,chapin_dfss_providers_2011_070212.csv,ONWARD NEIGHBORHOOD HOUSE ABC PRESCHOOL,3800 N AUSTIN AVENUE ,60634,6859033,,,,,,,ONWARD NEIGHBORHOOD HOUSE,DUNNING,,,,,Patricia Bentz,Yes,No,No,,,,,,,,,,
1857,chapin_dfss_providers_2011_070212.csv,ONWARD NEIGHBORHOOD HOUSE LEE'S CUDDLES N CARE,6100 W NORTH AVENUE ,60639,7458054,,,,,,,ONWARD NEIGHBORHOOD HOUSE,AUSTIN,,,,,Anndrella Lee,Yes,No,No,,,,,,,,,,
1858,chapin_dfss_providers_2011_070212.csv,ONWARD NEIGHBORHOOD HOUSE MCKINNEY EARLY LEARNING ACADEMY,5745 W DIVISION ST ,60651,,,,,,,,ONWARD NEIGHBORHOOD HOUSE,AUSTIN,,,,,,Yes,No,No,,,,,,,,,,
1859,chapin_dfss_providers_2011_070212.csv,ONWARD NEIGHBORHOOD HOUSE NEW BEGINNINGS,5445 W NORTH AVENUE ,60639,3855365,,,,,,,ONWARD NEIGHBORHOOD HOUSE,AUSTIN,,,,,Verlene Vanderbilt,Yes,No,No,,,,,,,,,,
1860,chapin_dfss_providers_2011_070212.csv,ONWARD NEIGHBORHOOD HOUSE ONWARD NEIGHBORHOOD HOUSE - BELMONT/CRAGIN,5423 W DIVERSEY AVE ,60639,6223215,,,,,,,ONWARD NEIGHBORHOOD HOUSE,BELMONT CRAGIN,,,,,Santa Rivera,Yes,Yes,Yes,"3153IT(Child Care IT Center), 3153PS(Child Care PS Center &",,,,,,,,,
1861,chapin_dfss_providers_2011_070212.csv,ONWARD NEIGHBORHOOD HOUSE ONWARD NEIGHBORHOOD HOUSE - WEST TOWN,600 N LEAVITT STREET ,60612,6666726,,,,,,,ONWARD NEIGHBORHOOD HOUSE,WEST TOWN,,,,,Darica Charles,Yes,No,No,"2744IT(Child Care IT Center), 3272PS(HS Collaboration with C",,,,,,,,,
1862,chapin_dfss_providers_2011_070212.csv,ONWARD NEIGHBORHOOD HOUSE TINY TOWN FOR TOTS,5654 W DIVISION ST ,60651,6260048,,,,,,,ONWARD NEIGHBORHOOD HOUSE,AUSTIN,,,,,Ricky Spain,Yes,No,No,,,,,,,,,,
1863,chapin_dfss_providers_2011_070212.csv,SALVATION ARMY ALL THINGS ARE POSIBLE,4014 W CHICAGO AVE ,60651,4892464,,,,,,,SALVATION ARMY,HUMBOLDT PARK,,,,,Shelandria Galsper,Yes,No,No,,,,,,,,,,
1864,chapin_dfss_providers_2011_070212.csv,SALVATION ARMY BUILDING BLOCKS,1120 W 69TH ST ,60621,4882222,,,,,,,SALVATION ARMY,ENGLEWOOD,,,,,Mitchelle Redd,Yes,No,No,,,,,,,,,,
1865,chapin_dfss_providers_2011_070212.csv,SALVATION ARMY COLUMBUS PARK,500 S CENTRAL ,60644,9214162,,,,,,,SALVATION ARMY,AUSTIN,,,,,Felice Lewis,Yes,No,No,7017PS(HS Collaboration with Childcare & PreK),,,,,,,,,
1866,chapin_dfss_providers_2011_070212.csv,SALVATION ARMY CREATIVE LITTLE ONES,2809 W 59TH ST ,60629,4762562,,,,,,,SALVATION ARMY,CHICAGO LAWN,,,,,Audy Sejour,Yes,No,No,,,,,,,,,,
1867,chapin_dfss_providers_2011_070212.csv,SALVATION ARMY EDSEL ALBERT AMMONS NURSERY,549 E 76TH ST ,60619,4837040,,,,,,,SALVATION ARMY,GREATER GRAND CROSSING,,,,,Debbie Reynolds,Yes,No,No,,,,,,,,,,
1868,chapin_dfss_providers_2011_070212.csv,SALVATION ARMY FAMILY OUTREACH INITIATIVE (SAL ARMY,845 W 69TH STREET ,60621,8324716,,,,,,,SALVATION ARMY,ENGLEWOOD,,,,,Rosie Mohammad,Yes,No,No,4121IT(EHS),,,,,,,,,
1869,chapin_dfss_providers_2011_070212.csv,SALVATION ARMY FCCH-ALLIE WINFIELD,1312 W 95TH ST ,60643,2382079,,,,,,,SALVATION ARMY,WASHINGTON HEIGHTS,,,,,Kelli Kemp,No,No,No,"6108IP(EHS Collaboration Enhanced Home IP), 6108IT(EHS Enhan",,,,,,,,,
1870,chapin_dfss_providers_2011_070212.csv,SALVATION ARMY FCCH-GERALDINE SIVERAND,1504 N LECLAIRE ,60620,8040406,,,,,,,SALVATION ARMY,AUSTIN,,,,,Kelli Kemp,No,No,No,"5759IP(EHS Collaboration Enhanced Home IP), 5759IT(EHS Enhan",,,,,,,,,
1871,chapin_dfss_providers_2011_070212.csv,SALVATION ARMY FCCH-JESSICA HINTON,222 E 87TH ST ,60619,7982000,,,,,,,SALVATION ARMY,CHATHAM,,,,,Kelli Kemp,No,Yes,No,"6106IP(EHS Collaboration Enhanced Home IP), 6106IT(EHS Enhan",,,,,,,,,
1872,chapin_dfss_providers_2011_070212.csv,SALVATION ARMY FCCH-MILDRED SPEARS,6749 S WINCHESTER ,60636,9301832,,,,,,,SALVATION ARMY,WEST ENGLEWOOD,,,,,Kelli Kemp,No,No,No,"6107IP(EHS Collaboration Enhanced Home IP), 6107IT(EHS Enhan",,,,,,,,,
1873,chapin_dfss_providers_2011_070212.csv,SALVATION ARMY FCCH-SHIRLEY OLIVER,6020 S PAULINA ,60636,9126264,,,,,,,SALVATION ARMY,WEST ENGLEWOOD,,,,,Kelli Kemp,No,Yes,No,"5989IP(EHS Collaboration Enhanced Home IP), 5989IT(EHS Enhan",,,,,,,,,
1874,chapin_dfss_providers_2011_070212.csv,SALVATION ARMY INCARNATION,1345 N KARLOV ,60651,2764118,,,,,,,SALVATION ARMY,HUMBOLDT PARK,,,,,Zoraida Fernandini,Yes,No,No,,,,,,,,,,
1875,chapin_dfss_providers_2011_070212.csv,SALVATION ARMY NEW HOPE,4255 W DIVISION ,60651,7724908,,,,,,,SALVATION ARMY,HUMBOLDT PARK,,,,,Catherine Eason,Yes,No,No,3278PS(HS Collaboration with Childcare & PreK),,,,,,,,,
1876,chapin_dfss_providers_2011_070212.csv,SALVATION ARMY RED SHIELD,945 W 69TH STREET ,60621,3583224,,,,,,,SALVATION ARMY,ENGLEWOOD,,,,,Lillie Denton,Yes,No,No,,,,,,,,,,
1877,chapin_dfss_providers_2011_070212.csv,SALVATION ARMY SOUTH SHORE BIBLE/MARANATHA HEAD START,1631 E 71ST ST ,60649,4937500,,,,,,,SALVATION ARMY,SOUTH SHORE,,,,,Jaqueline Carter,Yes,No,No,4380PS(HS Collaboration with Childcare),,,,,,,,,
1878,chapin_dfss_providers_2011_070212.csv,SALVATION ARMY TEEN PARENTING PROGRAM,1548 W ADAMS ,60607,4210327,,,,,,,SALVATION ARMY,NEAR WEST SIDE,,,,,Jasmin Marshall,No,Yes,No,,,,,,,,,,
1879,chapin_dfss_providers_2011_070212.csv,SALVATION ARMY TEMPLE,1 N OGDEN ,60640,2262649,,,,,,,SALVATION ARMY,NEAR WEST SIDE,,,,,Barbara Martin,No,No,No,,,,,,,,,,
1880,chapin_dfss_providers_2011_070212.csv,SOUTH CENTRAL COMMUNITY SERVICES SOUTH CENTRAL COMMUNITY SERVICE,8316 S ELLIS AVE ,60619,4830900,,,,,,,SOUTH CENTRAL COMMUNITY SERVICES,CHATHAM,,,,,Marsha Hightower,Yes,No,No,,,,,,,,,,
1881,chapin_dfss_providers_2011_070212.csv,SOUTH EAST ASIA CENTER SOUTH EAST ASIA CENTER (AINSLIE),1134 W AINSLIE ,60640,9897433,,,,,,,SOUTH EAST ASIA CENTER,UPTOWN,,,,,Fe Mendoza,No,No,Yes,"7139IT(Child Care IT Center), 7139PS (Child Care PS Center &",,,,,,,,,
1882,chapin_dfss_providers_2011_070212.csv,SOUTH EAST ASIA CENTER SOUTH EAST ASIA CENTER (BROADWAY),5120 N BROADWAY AVE ,60640,9897433,,,,,,,SOUTH EAST ASIA CENTER,UPTOWN,,,,,Loipin Chin,No,No,Yes,"2779PS(Child Care PS Center & State Pre-K), 2779SA(School Ag",,,,,,,,,
1883,chapin_dfss_providers_2011_070212.csv,SOUTH EAST ASIA CENTER SOUTH EAST ASIA CENTER (FOSTER),1112 W FOSTER ,60640,9897433,,,,,,,SOUTH EAST ASIA CENTER,EDGEWATER,,,,,Tsering Ngalutsang,No,No,Yes,4127SA(School Age (SA)),,,,,,,,,
1884,chapin_dfss_providers_2011_070212.csv,SOUTH SHORE UNITED METHODIST SOUTH SHORE UNITED METHODIST,7350 S JEFFERY ,60649,3424430,,,,,,,SOUTH SHORE UNITED METHODIST,SOUTH SHORE,,,,,Bettye Turner,Yes,No,No,7141PS(HS Collaboration with Childcare),,,,,,,,,
1885,chapin_dfss_providers_2011_070212.csv,THRESHOLDS THRESHOLDS MOTHERS' PROJECT,1110 W BELMONT ,60657,5373290,,,,,,,THRESHOLDS,LAKE VIEW,,,,,Marshelia Harris,No,No,No,"2535IT(Child Care IT Center), 2535PS(Child Care PS Center),",,,,,,,,,
1886,chapin_dfss_providers_2011_070212.csv,"TRINITY RESOURCES UNLIMITED, INC. HIGH MOUNTAIN",919 N LAVERGNE ,60651,6263997,,,,,,,"TRINITY RESOURCES UNLIMITED, INC.",AUSTIN,,,,,Marion Hayes,Yes,No,No,,,,,,,,,,
1887,chapin_dfss_providers_2011_070212.csv,"TRINITY RESOURCES UNLIMITED, INC. HOPE FOR YOUTH",5900 W IOWA ,60651,6260322,,,,,,,"TRINITY RESOURCES UNLIMITED, INC.",AUSTIN,,,,,Bernice Porter,Yes,No,No,7019PS(HS Collaboration with Childcare),,,,,,,,,
1888,chapin_dfss_providers_2011_070212.csv,TRINITY UNITED CHURCH OF CHRIST DR. DETON J. BROOKS HEAD START,6921 S STONY ISLAND ,60649,9552818,,,,,,,TRINITY UNITED CHURCH OF CHRIST,SOUTH SHORE,,,,,Cherie Brown,Yes,No,Yes,"7079PS(HS Collaboration with Childcare & PreK), 4118PS(Child",,,,,,,,,
1889,chapin_dfss_providers_2011_070212.csv,TRINITY UNITED CHURCH OF CHRIST TRINITY UCC,532 W 95TH ST ,60628,,,,,,,,TRINITY UNITED CHURCH OF CHRIST,WASHINGTON HEIGHTS,,,,,Ekoi Florence,Yes,No,Yes,"2527IT(Child Care IT Center), 4311PS(HS Collaboration with C",,,,,,,,,
1890,chapin_dfss_providers_2011_070212.csv,WESTSIDE HOLISTIC FAMILY SERVICES WESTSIDE HOLISTIC FAMILY SERVICES,4909 W DIVISION ,60651,9218777,,,,,,,WESTSIDE HOLISTIC FAMILY SERVICES,AUSTIN,,,,,Florence Merritt,Yes,No,No,,,,,,,,,,
1891,chapin_dfss_providers_2011_070212.csv,WOODLAWN A.M.E. CHURCH WOODLAWN AME CHURCH,6456 S EVANS ,60637,6671402,,,,,,,WOODLAWN A.M.E. CHURCH,WOODLAWN,,,,,Samara Akins,No,No,No,"7148IT(Child Care IT Center), 2686SA(School Age (SA)), 7148P",,,,,,,,,
1892,chapin_dfss_providers_2011_070212.csv,YMCA OF METROPOLITAN CHICAGO DR. EFFIE O ELLIS,10 S KEDZIE ,60612,5339011,,,,,,,YMCA OF METROPOLITAN CHICAGO,EAST GARFIELD PARK,,,,,Anelyn Jablo,Yes,No,No,4364PS(HS Collaboration with Childcare & PreK),,,,,,,,,
1893,chapin_dfss_providers_2011_070212.csv,YMCA OF METROPOLITAN CHICAGO GARFIELD,7 N HOMAN ,60624,2653900,,,,,,,YMCA OF METROPOLITAN CHICAGO,EAST GARFIELD PARK,,,,,Paulette Hernandez,Yes,Yes,No,"7081PS(HS Collaboration with Childcare & PreK), 6039IP(EHS C",,,,,,,,,
1894,chapin_dfss_providers_2011_070212.csv,YMCA OF METROPOLITAN CHICAGO HIGH RIDGE,2424 W TOUHY ,60645,2628300,,,,,,,YMCA OF METROPOLITAN CHICAGO,WEST RIDGE,,,,,Linda Acevedo,Yes,No,Yes,"2132IT(Child Care IT Center), 7094PS(HS Collaboration with C",,,,,,,,,
1895,chapin_dfss_providers_2011_070212.csv,YMCA OF METROPOLITAN CHICAGO JEANNE KENNEY DAY CARE CENTER,7600 S PARNELL ,60620,8861216,,,,,,,YMCA OF METROPOLITAN CHICAGO,WASHINGTON HEIGHTS,,,,,Arlene Lewis,Yes,Yes,No,"4393IT(Child Care IT Center), 4393PS(Child Care PS Center),",,,,,,,,,
1896,chapin_dfss_providers_2011_070212.csv,YMCA OF METROPOLITAN CHICAGO LOGAN SQUARE - FIRST LUTHERAN,3500 W FULLERTON ,60647,8625960,,,,,,,YMCA OF METROPOLITAN CHICAGO,LOGAN SQUARE,,,,,Nilsa Ramirez,Yes,No,No,,,,,,,,,,
1897,chapin_dfss_providers_2011_070212.csv,YMCA OF METROPOLITAN CHICAGO MARSHALL,3250 W ADAMS ,60624,2650145,,,,,,,YMCA OF METROPOLITAN CHICAGO,EAST GARFIELD PARK,,,,,Beverly Ross,No,Yes,No,"6040IP(EHS Collaboration Enhanced Center-IP), 6040EP(EHS Col",,,,,,,,,
1898,chapin_dfss_providers_2011_070212.csv,YMCA OF METROPOLITAN CHICAGO MCCORMICK TRIBUNE,1834 N LAWNDALE ,60647,2352525,,,,,,,YMCA OF METROPOLITAN CHICAGO,LOGAN SQUARE,,,,,Maria Franco,Yes,Yes,Yes,"2697IT(Child Care IT Center), 7096PS(HS Collaboration with C",,,,,,,,,
1899,chapin_dfss_providers_2011_070212.csv,YMCA OF METROPOLITAN CHICAGO NORTH LAWNDALE,3449 W ARTHINGTON ,60624,6380773,,,,,,,YMCA OF METROPOLITAN CHICAGO,NORTH LAWNDALE,,,,,Leslie Hampton,Yes,Yes,Yes,"8023IT(Child Care IT Center), 8022PS(HS Collaboration with C",,,,,,,,,
1900,chapin_dfss_providers_2011_070212.csv,YMCA OF METROPOLITAN CHICAGO RAUNER,2700 S WESTERN AVE ,60608,8473115,,,,,,,YMCA OF METROPOLITAN CHICAGO,LOWER WEST SIDE,,,,,Sonya Sifuentes,Yes,Yes,Yes,"4167IT(Child Care IT Center), 4170PS(HS Collaboration with C",,,,,,,,,
1901,chapin_dfss_providers_2011_070212.csv,YMCA OF METROPOLITAN CHICAGO SOUTH CHICAGO,3039 E 91ST STREET ,60617,7219100,,,,,,,YMCA OF METROPOLITAN CHICAGO,SOUTH CHICAGO,,,,,Sherry Ceroomes,Yes,No,Yes,"2694IT(Child Care IT Center), 7095PS(HS Collaboration with C",,,,,,,,,
1902,chapin_dfss_providers_2011_070212.csv,YMCA OF METROPOLITAN CHICAGO SOUTH SIDE,6330 S STONY ISLAND ,60637,7739470,,,,,,,YMCA OF METROPOLITAN CHICAGO,WOODLAWN,,,,,Bobbie Dickens,Yes,Yes,Yes,"2695IT(Child Care IT Center), 7144PS(HS Collaboration with C",,,,,,,,,
1903,chapin_dfss_providers_2011_070212.csv,YMCA OF METROPOLITAN CHICAGO WABASH,3763 S WABASH AVE ,60653,2850020,,,,,,,YMCA OF METROPOLITAN CHICAGO,DOUGLAS,,,,,LaVonna Loving,No,No,Yes,2133SA(School Age (SA)),,,,,,,,,
